IMG;BENE_CULTURALE;TITOLO;SOGGETTO;TIPO_SCHEDA;CODICE_UNIVOCO;LOCALIZZAZIONE;CONTENITORE;DATAZIONE;AMBITO_CULTURALE;AUTORE;MATERIA_TECNICA;MISURE;CONDIZIONE_GIURIDICA;DATI_ANALITICI;ISCRIZIONE;NOTIZIE_STORICO-CRITICHE;ALTRA_LOCALIZZAZIONE;REPERIMENTO;ALTRE_ATTRIBUZIONI;COMMITTENZA;DATI_CATASTALI;GEOREFERENZIAZIONE;BIBLIOGRAFIA;DEFINIZIONE;DENOMINAZIONE;CLASSIFICAZIONE;REGIONE;PROVINCIA;COMUNE;LOCALITA;TOPONIMO;DIOCESI;INDIRIZZO;PROVVEDIMENTI_TUTELA;INVENTARIO;STIMA;RAPPORTO;ALTRI_CODICI;ENTE_SCHEDATORE;ENTE_COMPETENTE;AUTORI;ANNO_CREAZIONE;ANNO_MODIFICA;LAT;LON
http://www.sigecweb.beniculturali.it/images/fullsize/ICCD50007125/ICCD2729607_sbaaas_pi_292864.jpg;"rilievo, frammento";"";"testa di Santo";"OA_3.00";"09 00525624";"Italia, Toscana, MS, CarraraVia P. Tacca, 36";"scuola, I.P.I.A.M. ""P. Tacca"", Via P. Tacca, 36, Gipsoteca dell'Istituto Tacca, gipsoteca";"sec. XX prima metà; 1900  - 1949 [analisi stilistica]";"bottega italiana(analisi stilistica)";"";"gesso";"alt. 20, largh. 16, ";"proprietà Stato, Ministero della Pubblica Istruzione -  I.P.I.A.M. ""P. Tacca""";"rilievo raffigurante testa di santo recante aureola e parte del capo a tutto tondo liemente reclinato alla sua sinistraNR (recupero pregresso)";"";"";"";"";"";"";"";"";"";"rilievo";"";"";"Toscana";"MS";"Carrara";"";"";"";"Via P. Tacca, 36";"";"";"";"";"";"S39";"S39";"Compilatore scheda: Passeggia L.; Funzionario responsabile: Russo S.; Aggiornamento-revisione: ARTPAST/ Ferraro M. (2006), Referente scientifico: NR (recupero pregresso); ";"2000";"2006";44.077598;10.104292
http://www.sigecweb.beniculturali.it/images/fullsize/ICCD50007125/ICCD2729685_sbaaas_pi_292903.jpg;"rilievo";"";"natività di Gesù";"OA_3.00";"09 00525663";"Italia, Toscana, MS, CarraraVia P. Tacca, 36";"scuola, I.P.I.A.M. ""P. Tacca"", Via P. Tacca, 36, Gipsoteca dell'Istituto Tacca, gipsoteca";"sec. XX metà; 1940  - 1960 [analisi stilistica]";"bottega italiana(analisi stilistica)";"";"gesso";"alt. 39, largh. 81, ";"proprietà Stato, Ministero della Pubblica Istruzione -  I.P.I.A.M. ""P. Tacca""";"rilievo mistilineo raffigurante al centro il Bambino e lateralmente, in ginocchio , la Madonna e San Giuseppe con bue e asino; a destra capannaNR (recupero pregresso)";"";"";"";"";"";"";"";"";"";"rilievo";"";"";"Toscana";"MS";"Carrara";"";"";"";"Via P. Tacca, 36";"";"";"";"";"";"S39";"S39";"Compilatore scheda: Passeggia L.; Funzionario responsabile: Russo S.; Aggiornamento-revisione: ARTPAST/ Ferraro M. (2006), Referente scientifico: NR (recupero pregresso); ";"2000";"2006";44.077598;10.104292
http://www.sigecweb.beniculturali.it/images/fullsize/ICCD50007125/ICCD2729611_sbaaas_pi_292866.jpg;"rilievo";"";"Sant'Andrea Apostolo e San Filippo";"OA_3.00";"09 00525626";"Italia, Toscana, MS, CarraraVia P. Tacca, 36";"scuola, I.P.I.A.M. ""P. Tacca"", Via P. Tacca, 36, Gipsoteca dell'Istituto Tacca, gipsoteca";"sec. XX prima metà; 1900  - 1949 [analisi stilistica]";"bottega italiana(analisi stilistica)";"";"gesso";"alt. 67, largh. 55, ";"proprietà Stato, Ministero della Pubblica Istruzione -  I.P.I.A.M. ""P. Tacca""";"santi Andrea e Filippo stanti, il primo recante con la sinistra croce greca e il secondo con la sinistra croce pastorale e ai piedi bisacciaNR (recupero pregresso)";"Classe di appartenenza: commemorativa;  Tecnica di scrittura: a pennello;  Tipo di caratteri: lettere capitali;  Posizione: lati anteriori sinistro e destro, verticale; S.ANDREA   S.FILIPPO";"";"";"";"";"";"";"";"";"rilievo";"";"";"Toscana";"MS";"Carrara";"";"";"";"Via P. Tacca, 36";"";"";"";"";"";"S39";"S39";"Compilatore scheda: Passeggia L.; Funzionario responsabile: Russo S.; Aggiornamento-revisione: ARTPAST/ Ferraro M. (2006), Referente scientifico: NR (recupero pregresso); ";"2000";"2006";44.077598;10.104292
http://www.sigecweb.beniculturali.it/images/fullsize/ICCD50007125/ICCD2729613_sbaaas_pi_292867.jpg;"rilievo";"";"motivi decorativi vegetali";"OA_3.00";"09 00525627";"Italia, Toscana, MS, CarraraVia P. Tacca, 36";"scuola, I.P.I.A.M. ""P. Tacca"", Via P. Tacca, 36, Gipsoteca dell'Istituto Tacca, gipsoteca";"secc. XIX/ XX fine/inizio; 1890  - 1910 [analisi stilistica]";"bottega italiana(analisi stilistica)";"";"gesso";"alt. 40, largh. 76, ";"proprietà Stato, Ministero della Pubblica Istruzione -  I.P.I.A.M. ""P. Tacca""";"fregio raffigurante girali e volute fitomorfe con usignoloNR (recupero pregresso)";"";"";"";"";"";"";"";"";"";"rilievo";"";"";"Toscana";"MS";"Carrara";"";"";"";"Via P. Tacca, 36";"";"";"";"";"";"S39";"S39";"Compilatore scheda: Passeggia L.; Funzionario responsabile: Russo S.; Aggiornamento-revisione: ARTPAST/ Ferraro M. (2006), Referente scientifico: NR (recupero pregresso); ";"2000";"2006";44.077598;10.104292
http://www.sigecweb.beniculturali.it/images/fullsize/ICCD50007125/ICCD2729690_sbaaas_pi_292906.jpg;"statua";"";"angelo";"OA_3.00";"09 00525666";"Italia, Toscana, MS, CarraraVia P. Tacca, 36";"scuola, I.P.I.A.M. ""P. Tacca"", Via P. Tacca, 36, Gipsoteca dell'Istituto Tacca, gipsoteca";"secc. XIX/ XX fine/inizio; 1890  - 1910 [analisi stilistica]";"bottega italiana(analisi stilistica)";"";"gesso";"alt. 45, largh. 35, prof. 6, ";"proprietà Stato, Ministero della Pubblica Istruzione -  I.P.I.A.M. ""P. Tacca""";"statua raffigurante angelo inginocchiato sorreggente conchiglia ad uso acquasantieraNR (recupero pregresso)";"";"";"";"";"";"";"";"";"";"statua";"";"";"Toscana";"MS";"Carrara";"";"";"";"Via P. Tacca, 36";"";"";"";"";"";"S39";"S39";"Compilatore scheda: Passeggia L.; Funzionario responsabile: Russo S.; Aggiornamento-revisione: ARTPAST/ Ferraro M. (2006), Referente scientifico: NR (recupero pregresso); ";"2000";"2006";44.077598;10.104292
http://www.sigecweb.beniculturali.it/images/fullsize/ICCD50007125/ICCD2729698_sbaaas_pi_292910.jpg;"statua";"";"putto alato";"OA_3.00";"09 00525670";"Italia, Toscana, MS, CarraraVia P. Tacca, 36";"scuola, I.P.I.A.M. ""P. Tacca"", Via P. Tacca, 36, Gipsoteca dell'Istituto Tacca, gipsoteca";"sec. XIX fine; 1890  - 1899 [analisi stilistica]";"bottega italiana(analisi stilistica)";"";"gesso";"alt. 78, largh. 42, ";"proprietà Stato, Ministero della Pubblica Istruzione -  I.P.I.A.M. ""P. Tacca""";"putto stante con gamba destra tesa e sinistra flessa e sollevata poggiato su guscio di tartarugo sostiene tra le braccia uccelloNR (recupero pregresso)";"";"";"";"";"";"";"";"";"";"statua";"";"";"Toscana";"MS";"Carrara";"";"";"";"Via P. Tacca, 36";"";"";"";"";"";"S39";"S39";"Compilatore scheda: Passeggia L.; Funzionario responsabile: Russo S.; Aggiornamento-revisione: ARTPAST/ Ferraro M. (2006), Referente scientifico: NR (recupero pregresso); ";"2000";"2006";44.077598;10.104292
http://www.sigecweb.beniculturali.it/images/fullsize/ICCD50007125/ICCD2729785_sbaaas_pi_292954.jpg;"medaglione, opera isolata";"";"ritratto d'uomo";"OA_3.00";"09 00525714";"Italia, Toscana, MS, CarraraVia P. Tacca, 36";"scuola, I.P.I.A.M. ""P. Tacca"", Via P. Tacca, 36, Gipsoteca dell'Istituto Tacca, gipsoteca";"sec. XIX metà; 1840  - 1860 [analisi stilistica]";"bottega italiana(analisi stilistica)";"";"gesso";"diam. 60, ";"proprietà Stato, Ministero della Pubblica Istruzione -  I.P.I.A.M. ""P. Tacca""";"all'intreno di cornice modanata in forte aggetto ristratto maschile con busto frontale, volto di tre quarti e abito di foggia cinque-seicentescaNR (recupero pregresso)";"";"";"";"";"";"";"";"";"";"medaglione";"";"";"Toscana";"MS";"Carrara";"";"";"";"Via P. Tacca, 36";"";"";"";"";"";"S39";"S39";"Compilatore scheda: Passeggia L.; Funzionario responsabile: Russo S.; Aggiornamento-revisione: ARTPAST/ Ferraro M. (2006), Referente scientifico: NR (recupero pregresso); ";"2000";"2006";44.077598;10.104292
http://www.sigecweb.beniculturali.it/images/fullsize/ICCD50007125/ICCD2729773_sbaaas_pi_292948.jpg;"rilievo, frammento";"";"figure maschili";"OA_3.00";"09 00525708";"Italia, Toscana, MS, CarraraVia P. Tacca, 36";"scuola, I.P.I.A.M. ""P. Tacca"", Via P. Tacca, 36, Gipsoteca dell'Istituto Tacca, gipsoteca";"sec. XX metà; 1940  - 1960 [analisi stilistica]";"bottega italiana(analisi stilistica)";"";"gesso";"alt. 33, largh. 28, ";"proprietà Stato, Ministero della Pubblica Istruzione -  I.P.I.A.M. ""P. Tacca""";"in primo piano tre figure maschili, in atteggiamento pensoso, stanti. In secondo piano, in alto a sinistra, tendaggioNR (recupero pregresso)";"";"";"";"";"";"";"";"";"";"rilievo";"";"";"Toscana";"MS";"Carrara";"";"";"";"Via P. Tacca, 36";"";"";"";"";"";"S39";"S39";"Compilatore scheda: Passeggia L.; Funzionario responsabile: Russo S.; Aggiornamento-revisione: ARTPAST/ Ferraro M. (2006), Referente scientifico: NR (recupero pregresso); ";"2000";"2006";44.077598;10.104292
http://www.sigecweb.beniculturali.it/images/fullsize/ICCD50007125/ICCD2729775_sbaaas_pi_292949.jpg;"rilievo, frammento";"";"motivo decorativo";"OA_3.00";"09 00525709";"Italia, Toscana, MS, CarraraVia P. Tacca, 36";"scuola, I.P.I.A.M. ""P. Tacca"", Via P. Tacca, 36, Gipsoteca dell'Istituto Tacca, gipsoteca";"secc. XIX/ XX fine/inizio; 1890  - 1910 [analisi stilistica]";"bottega italiana(analisi stilistica)";"";"gesso";"alt. 38, largh. 56, ";"proprietà Stato, Ministero della Pubblica Istruzione -  I.P.I.A.M. ""P. Tacca""";"fregio con cornice modanata e in lieve aggetto, decorato da motivi vegetali ed elementi fitomorfi spiralatiNR (recupero pregresso)";"";"";"";"";"";"";"";"";"";"rilievo";"";"";"Toscana";"MS";"Carrara";"";"";"";"Via P. Tacca, 36";"";"";"";"";"";"S39";"S39";"Compilatore scheda: Passeggia L.; Funzionario responsabile: Russo S.; Aggiornamento-revisione: ARTPAST/ Ferraro M. (2006), Referente scientifico: NR (recupero pregresso); ";"2000";"2006";44.077598;10.104292
http://www.sigecweb.beniculturali.it/images/fullsize/ICCD50007125/ICCD2729692_sbaaas_pi_292907.jpg;"rilievo";"";"uccisione di Porzia";"OA_3.00";"09 00525667";"Italia, Toscana, MS, CarraraVia P. Tacca, 36";"scuola, I.P.I.A.M. ""P. Tacca"", Via P. Tacca, 36, Gipsoteca dell'Istituto Tacca, gipsoteca";"sec. XIX metà; 1840  - 1860 [analisi stilistica]";"bottega italiana(analisi stilistica)";"";"gesso";"alt. 32, largh. 36, ";"proprietà Stato, Ministero della Pubblica Istruzione -  I.P.I.A.M. ""P. Tacca""";"davanti ad edicola architettonica timpanata, guerriero in atto di uccidere giovane donna semisdraiata sorretta da vecchio a capo velatoNR (recupero pregresso)";"";"";"";"";"";"";"";"";"";"rilievo";"";"";"Toscana";"MS";"Carrara";"";"";"";"Via P. Tacca, 36";"";"";"";"";"";"S39";"S39";"Compilatore scheda: Passeggia L.; Funzionario responsabile: Russo S.; Aggiornamento-revisione: ARTPAST/ Ferraro M. (2006), Referente scientifico: NR (recupero pregresso); ";"2000";"2006";44.077598;10.104292
http://www.sigecweb.beniculturali.it/images/fullsize/ICCD50007125/ICCD2729694_sbaaas_pi_292908.jpg;"base";"";"";"OA_3.00";"09 00525668";"Italia, Toscana, MS, CarraraVia P. Tacca, 36";"scuola, I.P.I.A.M. ""P. Tacca"", Via P. Tacca, 36, Gipsoteca dell'Istituto Tacca, gipsoteca";"sec. XIX metà; 1840  - 1860 [analisi stilistica]";"bottega italiana(analisi stilistica)";"";"gesso";"alt. 90, largh. 62, ";"proprietà Stato, Ministero della Pubblica Istruzione -  I.P.I.A.M. ""P. Tacca""";"base di fontana a sezione circolare decorata con elementi di grottesco, base piriforme con modanature ed elementi fitomorfi circondata da tre putti in atto di avanzare panneggiatiNR (recupero pregresso)";"";"";"";"";"";"";"";"";"";"base";"";"";"Toscana";"MS";"Carrara";"";"";"";"Via P. Tacca, 36";"";"";"";"";"";"S39";"S39";"Compilatore scheda: Passeggia L.; Funzionario responsabile: Russo S.; Aggiornamento-revisione: ARTPAST/ Ferraro M. (2006), Referente scientifico: NR (recupero pregresso); ";"2000";"2006";44.077598;10.104292
http://www.sigecweb.beniculturali.it/images/fullsize/ICCD50007125/ICCD2729779_sbaaas_pi_292951.jpg;"rilievo, frammento";"bassorilievo decorativo";"figure maschili stanti";"OA_3.00";"09 00525711";"Italia, Toscana, MS, CarraraVia P. Tacca, 36";"scuola, I.P.I.A.M. ""P. Tacca"", Via P. Tacca, 36, Gipsoteca dell'Istituto Tacca, gipsoteca";"sec. XX metà; 1940  - 1960 [analisi stilistica]";"bottega italiana(analisi stilistica)";"";"gesso";"alt. 33, largh. 38, ";"proprietà Stato, Ministero della Pubblica Istruzione -  I.P.I.A.M. ""P. Tacca""";"soldato romano stante in atto di ricevere daga da dignitario togato; a destra trono; in secondo piano tendaggioNR (recupero pregresso)";"";"";"";"";"";"";"";"";"";"rilievo";"";"";"Toscana";"MS";"Carrara";"";"";"";"Via P. Tacca, 36";"";"";"";"";"";"S39";"S39";"Compilatore scheda: Passeggia L.; Funzionario responsabile: Russo S.; Aggiornamento-revisione: ARTPAST/ Ferraro M. (2006), Referente scientifico: NR (recupero pregresso); ";"2000";"2006";44.077598;10.104292
http://www.sigecweb.beniculturali.it/images/fullsize/ICCD50007125/ICCD2729787_sbaaas_pi_292955.jpg;"medaglione, opera isolata";"";"ritratto d'uomo";"OA_3.00";"09 00525715";"Italia, Toscana, MS, CarraraVia P. Tacca, 36";"scuola, I.P.I.A.M. ""P. Tacca"", Via P. Tacca, 36, Gipsoteca dell'Istituto Tacca, gipsoteca";"sec. XIX metà; 1840  - 1860 [analisi stilistica]";"bottega italiana(analisi stilistica)";"";"gesso";"diam. 60, ";"proprietà Stato, Ministero della Pubblica Istruzione -  I.P.I.A.M. ""P. Tacca""";"all'interno di cornice modanata in forte aggetto ritratto maschile a mezzo busto di tre quarti con cappello e abito con pelliccia di foggia quattrocentescaNR (recupero pregresso)";"";"";"";"";"";"";"";"";"";"medaglione";"";"";"Toscana";"MS";"Carrara";"";"";"";"Via P. Tacca, 36";"";"";"";"";"";"S39";"S39";"Compilatore scheda: Passeggia L.; Funzionario responsabile: Russo S.; Aggiornamento-revisione: ARTPAST/ Ferraro M. (2006), Referente scientifico: NR (recupero pregresso); ";"2000";"2006";44.077598;10.104292
http://www.sigecweb.beniculturali.it/images/fullsize/ICCD50007125/ICCD2729789_sbaaas_pi_292956.jpg;"rilievo, frammento";"soldati romani";"figure maschili stanti";"OA_3.00";"09 00525716";"Italia, Toscana, MS, CarraraVia P. Tacca, 36";"scuola, I.P.I.A.M. ""P. Tacca"", Via P. Tacca, 36, Gipsoteca dell'Istituto Tacca, gipsoteca";"sec. XX metà; 1940  - 1960 [analisi stilistica]";"bottega italiana(analisi stilistica)";"";"gesso";"alt. 33, largh. 43, ";"proprietà Stato, Ministero della Pubblica Istruzione -  I.P.I.A.M. ""P. Tacca""";"gruppo di quattro soldati romani, di cui i due centrali in atto di avanzare e i due laterali, di tre quarti, stantiNR (recupero pregresso)";"";"";"";"";"";"";"";"";"";"rilievo";"";"";"Toscana";"MS";"Carrara";"";"";"";"Via P. Tacca, 36";"";"";"";"";"";"S39";"S39";"Compilatore scheda: Passeggia L.; Funzionario responsabile: Russo S.; Aggiornamento-revisione: ARTPAST/ Ferraro M. (2006), Referente scientifico: NR (recupero pregresso); ";"2000";"2006";44.077598;10.104292
http://www.sigecweb.beniculturali.it/images/fullsize/ICCD50007125/ICCD2729875_sbaaas_pi_292999.jpg;"rilievo, opera isolata";"";"";"OA_3.00";"09 00525759";"Italia, Toscana, MS, CarraraVia P. Tacca, 36";"scuola, I.P.I.A.M. ""P. Tacca"", Via P. Tacca, 36, Gipsoteca dell'Istituto Tacca, gipsoteca";"sec. XIX seconda metà; 1850  - 1899 [analisi stilistica]";"bottega italiana(analisi stilistica)";"";"gesso";"alt. 148, largh. 47, ";"proprietà Stato, Ministero della Pubblica Istruzione -  I.P.I.A.M. ""P. Tacca""";"fregio con cornice modanata raffigurante all'interno candelbra fitomorfaNR (recupero pregresso)";"";"";"";"";"";"";"";"";"";"rilievo";"";"";"Toscana";"MS";"Carrara";"";"";"";"Via P. Tacca, 36";"";"";"";"";"";"S39";"S39";"Compilatore scheda: Passeggia L.; Funzionario responsabile: Russo S.; Aggiornamento-revisione: ARTPAST/ Ferraro M. (2006), Referente scientifico: NR (recupero pregresso); ";"2000";"2006";44.077598;10.104292
http://www.sigecweb.beniculturali.it/images/fullsize/ICCD50007125/ICCD2729777_sbaaas_pi_292950.jpg;"rilievo, frammento";"";"figure maschili stanti";"OA_3.00";"09 00525710";"Italia, Toscana, MS, CarraraVia P. Tacca, 36";"scuola, I.P.I.A.M. ""P. Tacca"", Via P. Tacca, 36, Gipsoteca dell'Istituto Tacca, gipsoteca";"sec. XX inizio; 1900  - 1910 [analisi stilistica]";"bottega italiana(analisi stilistica)";"";"gesso";"alt. 33, largh. 43, ";"proprietà Stato, Ministero della Pubblica Istruzione -  I.P.I.A.M. ""P. Tacca""";"gruppo di quattro soldati armati in atto di camminare seguono comandante in posizione frontale con daga nella mano destraNR (recupero pregresso)";"";"";"";"";"";"";"";"";"";"rilievo";"";"";"Toscana";"MS";"Carrara";"";"";"";"Via P. Tacca, 36";"";"";"";"";"";"S39";"S39";"Compilatore scheda: Passeggia L.; Funzionario responsabile: Russo S.; Aggiornamento-revisione: ARTPAST/ Ferraro M. (2006), Referente scientifico: NR (recupero pregresso); ";"2000";"2006";44.077598;10.104292
http://www.sigecweb.beniculturali.it/images/fullsize/ICCD50007125/ICCD2729863_sbaaas_pi_292993.jpg;"base, opera isolata";"";"";"OA_3.00";"09 00525753";"Italia, Toscana, MS, CarraraVia P. Tacca, 36";"scuola, I.P.I.A.M. ""P. Tacca"", Via P. Tacca, 36, Gipsoteca dell'Istituto Tacca, gipsoteca";"sec. XX prima metà; 1900  - 1949 [analisi stilistica]";"bottega italiana(analisi stilistica)";"";"gesso";"alt. 32, diam. 18, ";"proprietà Stato, Ministero della Pubblica Istruzione -  I.P.I.A.M. ""P. Tacca""";"su base circolare modanata corpo piriforme costituito da serie di tori e gole alternati, decorati da festoni, volute fitomorfe, baccellature e palmette; anello modanato e baccellato terminaleNR (recupero pregresso)";"";"";"";"";"";"";"";"";"";"base";"";"";"Toscana";"MS";"Carrara";"";"";"";"Via P. Tacca, 36";"";"";"";"";"";"S39";"S39";"Compilatore scheda: Passeggia L.; Funzionario responsabile: Russo S.; Aggiornamento-revisione: ARTPAST/ Ferraro M. (2006), Referente scientifico: NR (recupero pregresso); ";"2000";"2006";44.077598;10.104292
http://www.sigecweb.beniculturali.it/images/fullsize/ICCD50007125/ICCD2729865_sbaaas_pi_292994.jpg;"formella, elemento d'insieme";"";"";"OA_3.00";"09 00525754";"Italia, Toscana, MS, CarraraVia P. Tacca, 36";"scuola, I.P.I.A.M. ""P. Tacca"", Via P. Tacca, 36, Gipsoteca dell'Istituto Tacca, gipsoteca";"sec. XX metà; 1940  - 1960 [analisi stilistica]";"bottega italiana(analisi stilistica)";"";"gesso";"alt. 28, largh. 22, ";"proprietà Stato, Ministero della Pubblica Istruzione -  I.P.I.A.M. ""P. Tacca""";"foglia di acanto con volute laterali e nervatureNR (recupero pregresso)";"";"";"";"";"";"";"";"";"";"formella";"";"";"Toscana";"MS";"Carrara";"";"";"";"Via P. Tacca, 36";"";"";"";"";"";"S39";"S39";"Compilatore scheda: Passeggia L.; Funzionario responsabile: Russo S.; Aggiornamento-revisione: ARTPAST/ Ferraro M. (2006), Referente scientifico: NR (recupero pregresso); ";"2000";"2006";44.077598;10.104292
http://www.sigecweb.beniculturali.it/images/fullsize/ICCD50007125/ICCD2729781_sbaaas_pi_292952.jpg;"rilievo, opera isolata";"";"motivi decorativi";"OA_3.00";"09 00525712";"Italia, Toscana, MS, CarraraVia P. Tacca, 36";"scuola, I.P.I.A.M. ""P. Tacca"", Via P. Tacca, 36, Gipsoteca dell'Istituto Tacca, gipsoteca";"sec. XX metà; 1940  - 1960 [analisi stilistica]";"bottega italiana(analisi stilistica)";"";"gesso";"alt. 52, largh. 85, ";"proprietà Stato, Ministero della Pubblica Istruzione -  I.P.I.A.M. ""P. Tacca""";"a sinistra pavone di profilo, a coda chiusa, poggiante su elemento cordoliforme; a destra elemento decorativo con volute e coppia di pigne d'uvaNR (recupero pregresso)";"";"";"";"";"";"";"";"";"";"rilievo";"";"";"Toscana";"MS";"Carrara";"";"";"";"Via P. Tacca, 36";"";"";"";"";"";"S39";"S39";"Compilatore scheda: Passeggia L.; Funzionario responsabile: Russo S.; Aggiornamento-revisione: ARTPAST/ Ferraro M. (2006), Referente scientifico: NR (recupero pregresso); ";"2000";"2006";44.077598;10.104292
http://www.sigecweb.beniculturali.it/images/fullsize/ICCD50007125/ICCD2729869_sbaaas_pi_292996.jpg;"rilievo, frammento";"";"";"OA_3.00";"09 00525756";"Italia, Toscana, MS, CarraraVia P. Tacca, 36";"scuola, I.P.I.A.M. ""P. Tacca"", Via P. Tacca, 36, Gipsoteca dell'Istituto Tacca, gipsoteca";"sec. XIX seconda metà; 1850  - 1899 [analisi stilistica]";"bottega italiana(analisi stilistica)";"";"gesso";"alt. 35, largh. 15, ";"proprietà Stato, Ministero della Pubblica Istruzione -  I.P.I.A.M. ""P. Tacca""";"rilievo raffigurante volute e racemi fitomorfiNR (recupero pregresso)";"";"";"";"";"";"";"";"";"";"rilievo";"";"";"Toscana";"MS";"Carrara";"";"";"";"Via P. Tacca, 36";"";"";"";"";"";"S39";"S39";"Compilatore scheda: Passeggia L.; Funzionario responsabile: Russo S.; Aggiornamento-revisione: ARTPAST/ Ferraro M. (2006), Referente scientifico: NR (recupero pregresso); ";"2000";"2006";44.077598;10.104292
http://www.sigecweb.beniculturali.it/images/fullsize/ICCD50007125/ICCD2729877_sbaaas_pi_293000.jpg;"rilievo, opera isolata";"";"natività di Gesù";"OA_3.00";"09 00525760";"Italia, Toscana, MS, CarraraVia P. Tacca, 36";"scuola, I.P.I.A.M. ""P. Tacca"", Via P. Tacca, 36, Gipsoteca dell'Istituto Tacca, gipsoteca";"sec. XX prima metà; 1900  - 1949 [analisi stilistica]";"bottega italiana(analisi stilistica)";"";"gesso";"diam. 118, ";"proprietà Stato, Ministero della Pubblica Istruzione -  I.P.I.A.M. ""P. Tacca""";"tondo raffigurante Adorazione di Filippino LippiNR (recupero pregresso)";"";"";"";"";"";"";"";"";"";"rilievo";"";"";"Toscana";"MS";"Carrara";"";"";"";"Via P. Tacca, 36";"";"";"";"";"";"S39";"S39";"Compilatore scheda: Passeggia L.; Funzionario responsabile: Russo S.; Aggiornamento-revisione: ARTPAST/ Ferraro M. (2006), Referente scientifico: NR (recupero pregresso); ";"2000";"2006";44.077598;10.104292
http://www.sigecweb.beniculturali.it/images/fullsize/ICCD50007125/ICCD2729879_sbaaas_pi_293001.jpg;"rilievo, elemento d'insieme";"Trono Ludovisi";"Venere al bagno";"OA_3.00";"09 00525761";"Italia, Toscana, MS, CarraraVia P. Tacca, 36";"scuola, I.P.I.A.M. ""P. Tacca"", Via P. Tacca, 36, Gipsoteca dell'Istituto Tacca, gipsoteca";"sec. XX metà; 1940  - 1960 [analisi stilistica]";"bottega italiana(analisi stilistica)";"";"gesso";"alt. 90, largh. 142, ";"proprietà Stato, Ministero della Pubblica Istruzione -  I.P.I.A.M. ""P. Tacca""";"Venere raffigurata frontalmente esce dall'acqua, accolta da due ancelle laterali raffigurate di profiloNR (recupero pregresso)";"";"";"";"";"";"";"";"";"";"rilievo";"";"";"Toscana";"MS";"Carrara";"";"";"";"Via P. Tacca, 36";"";"";"";"";"";"S39";"S39";"Compilatore scheda: Passeggia L.; Funzionario responsabile: Russo S.; Aggiornamento-revisione: ARTPAST/ Ferraro M. (2006), Referente scientifico: NR (recupero pregresso); ";"2000";"2006";44.077598;10.104292
http://www.sigecweb.beniculturali.it/images/fullsize/ICCD50007125/ICCD2729867_sbaaas_pi_292995.jpg;"rilievo, opera isolata";"";"contadini al lavoro";"OA_3.00";"09 00525755";"Italia, Toscana, MS, CarraraVia P. Tacca, 36";"scuola, I.P.I.A.M. ""P. Tacca"", Via P. Tacca, 36, Gipsoteca dell'Istituto Tacca, gipsoteca";"sec. XX prima metà; 1900  - 1949 [analisi stilistica]";"bottega italiana(analisi stilistica)";"";"gesso";"alt. 141, largh. 388, ";"proprietà Stato, Ministero della Pubblica Istruzione -  I.P.I.A.M. ""P. Tacca""";"rilievo raffigurante coppia di contadini all'aratro condotto da buoi; a destra due donne stanti con bambinoNR (recupero pregresso)";"";"";"";"";"";"";"";"";"";"rilievo";"";"";"Toscana";"MS";"Carrara";"";"";"";"Via P. Tacca, 36";"";"";"";"";"";"S39";"S39";"Compilatore scheda: Passeggia L.; Funzionario responsabile: Russo S.; Aggiornamento-revisione: ARTPAST/ Ferraro M. (2006), Referente scientifico: NR (recupero pregresso); ";"2000";"2006";44.077598;10.104292
http://www.sigecweb.beniculturali.it/images/fullsize/ICCD50007125/ICCD2729871_sbaaas_pi_292997.jpg;"crocifisso, opera isolata";"";"Cristo crocifisso";"OA_3.00";"09 00525757";"Italia, Toscana, MS, CarraraVia P. Tacca, 36";"scuola, I.P.I.A.M. ""P. Tacca"", Via P. Tacca, 36, Gipsoteca dell'Istituto Tacca, gipsoteca";"sec. XX metà; 1940  - 1960 [analisi stilistica]";"bottega italiana(analisi stilistica)";"";"gesso";"alt. 277, largh. 155, ";"proprietà Stato, Ministero della Pubblica Istruzione -  I.P.I.A.M. ""P. Tacca""";"Cristo su croce lignea, a capo reclinato, con perizoma sui fianchiNR (recupero pregresso)";"";"";"";"";"";"";"";"";"";"crocifisso";"";"";"Toscana";"MS";"Carrara";"";"";"";"Via P. Tacca, 36";"";"";"";"";"";"S39";"S39";"Compilatore scheda: Passeggia L.; Funzionario responsabile: Russo S.; Aggiornamento-revisione: ARTPAST/ Ferraro M. (2006), Referente scientifico: NR (recupero pregresso); ";"2000";"2006";44.077598;10.104292
http://www.sigecweb.beniculturali.it/images/fullsize/ICCD50007125/ICCD2729873_sbaaas_pi_292998.jpg;"busto, opera isolata";"";"Napoleone Bonaparte";"OA_3.00";"09 00525758";"Italia, Toscana, MS, CarraraVia P. Tacca, 36";"scuola, I.P.I.A.M. ""P. Tacca"", Via P. Tacca, 36, Gipsoteca dell'Istituto Tacca, gipsoteca";"sec. XIX prima metà; 1800  - 1849 [analisi stilistica]";"bottega italiana(analisi stilistica)";"";"gesso";"alt. 74, largh. 49, ";"proprietà Stato, Ministero della Pubblica Istruzione -  I.P.I.A.M. ""P. Tacca""";"busto raffigurante testa di Napoleone su modello di HoudonNR (recupero pregresso)";"";"";"";"";"";"";"";"";"";"busto";"";"";"Toscana";"MS";"Carrara";"";"";"";"Via P. Tacca, 36";"";"";"";"";"";"S39";"S39";"Compilatore scheda: Passeggia L.; Funzionario responsabile: Russo S.; Aggiornamento-revisione: ARTPAST/ Ferraro M. (2006), Referente scientifico: NR (recupero pregresso); ";"2000";"2006";44.077598;10.104292
http://www.sigecweb.beniculturali.it/images/fullsize/ICCD50007125/ICCD2729968_sbaaas_pi_293047.jpg;"busto, opera isolata";"Madame du Barry";"ritratto di donna";"OA_3.00";"09 00525804";"Italia, Toscana, MS, CarraraVia P. Tacca, 36";"scuola, I.P.I.A.M. ""P. Tacca"", Via P. Tacca, 36, Gipsoteca dell'Istituto Tacca, gipsoteca";"sec. XVIII seconda metà; 1750  - 1799 [iscrizione]";"ambito francese(iscrizione)";"";"gesso";"alt. 71, largh. 54, ";"proprietà Stato, Ministero della Pubblica Istruzione -  I.P.I.A.M. ""P. Tacca""";"busto ritratto femminile con il capo rivolto verso sinistra, veste drappeggiata e trattenuta da nastro sulla spalla destraNR (recupero pregresso)";"Classe di appartenenza: documentaria;  francese;  Tecnica di scrittura: a incisione;  Tipo di caratteri: lettere capitali;  Posizione: sul retro del busto, parte posteriore; PORTRAIT DE MADAME LA...DU...Y PAR PAJOU SCULPTEUR DU ROY PROFESSEUR DE SON ACADEMIE DE PEINTURE ET SCULPTURE1771";"L'opera è quasi certamente un calco del ritratto originale della duchessa Du Barry realizzato da Augustin Pajou (Parigi 1730 - 1809). Pajou eseguì 5 versioni del ritratto della duchessa, realizzate nel 1770, 1771, 1772, 1773 e 1774. L'opera, che non risulta tra gli elenchi di Laboratorio dell'Archivio Privato Lazzerini, è certamente da ascriversi al periodo in cui lo studio ebbe stretti contatti, nella seconda metà del Settecento, con esponenti della scultura francese prerivoluzionaria.";"";"";"";"";"";"";"Passeggia L.(	1997)";"busto";"";"";"Toscana";"MS";"Carrara";"";"";"";"Via P. Tacca, 36";"";"";"";"";"";"S39";"S39";"Compilatore scheda: Passeggia L.; Funzionario responsabile: Russo S.; Aggiornamento-revisione: ARTPAST/ Ferraro M. (2006), Referente scientifico: NR (recupero pregresso); ";"2000";"2006";44.077598;10.104292
http://www.sigecweb.beniculturali.it/images/fullsize/ICCD50007125/ICCD2729971_sbaaas_pi_293049.jpg;"busto, opera isolata";"La Guimarde";"ritratto di donna";"OA_3.00";"09 00525805";"Italia, Toscana, MS, CarraraVia P. Tacca, 36";"scuola, I.P.I.A.M. ""P. Tacca"", Via P. Tacca, 36, Gipsoteca dell'Istituto Tacca, gipsoteca";"sec. XVIII seconda metà; 1750  - 1799 [analisi stilistica]";"ambito francese(bibliografia)";"";"gesso";"alt. 79, largh. 53, ";"proprietà Stato, Ministero della Pubblica Istruzione -  I.P.I.A.M. ""P. Tacca""";"Poggiante su peduccio sagomato busto raffigrante donna con capo lievemente elevato rivolto alla propria sinistra, veste drappeggiata e tralcio di pampini sul senoNR (recupero pregresso)";"";"L'opera, indicata nell'Inventario della Scuola genericamente come ""Dama Francese"" è in realtà il ritratta della Guimarde, cantante lirica francese, realizzato dall'italiano Gaetano Merchi nel 1779 per l'Opera di Parigi. In proposito cfr. anche G. Hubert, La sculpture italienne en France, Paris 1964.";"";"";"";"";"";"";"Passeggia L.(	1997); Hubert G.(	1964)";"busto";"";"";"Toscana";"MS";"Carrara";"";"";"";"Via P. Tacca, 36";"";"";"";"";"";"S39";"S39";"Compilatore scheda: Passeggia L.; Funzionario responsabile: Russo S.; Aggiornamento-revisione: ARTPAST/ Ferraro M. (2006), Referente scientifico: NR (recupero pregresso); ";"2000";"2006";44.077598;10.104292
http://www.sigecweb.beniculturali.it/images/fullsize/ICCD50007125/ICCD2730042_sbaaas_pi_293094.jpg;"statua, opera isolata";"";"fanciulla che dipinge";"OA_3.00";"09 00525831";"Italia, Toscana, MS, CarraraVia P. Tacca, 36";"scuola, I.P.I.A.M. ""P. Tacca"", Via P. Tacca, 36, Gipsoteca dell'Istituto Tacca, gipsoteca";"sec. XIX fine; 1890  - 1899 [documentazione]";"ambito scandinavo(documentazione)";"";"gesso";"alt. 78, largh. 24, ";"proprietà Stato, Ministero della Pubblica Istruzione -  I.P.I.A.M. ""P. Tacca""";"fanciulla seminuda stante, appoggiata a muretto su cui trovasi ciotolina per colori, con capelli raccolti da fazzoletto, decora vasetto che sorregge con la mano sinistraNR (recupero pregresso)";"";"Il modello rappresenta la Pittrice Pompeiana di Christian Gottlieb Vilhelm Bissen (Copenaghen 1836-1905) realizzata per la prima volta in marmo nel Laboratorio di Carrara nel 1891";"";"";"";"";"";"";"Passeggia L.(	1997)";"statua";"";"";"Toscana";"MS";"Carrara";"";"";"";"Via P. Tacca, 36";"";"";"";"";"";"S39";"S39";"Compilatore scheda: Passeggia L.; Funzionario responsabile: Russo S.; Aggiornamento-revisione: ARTPAST/ Ferraro M. (2006), Referente scientifico: NR (recupero pregresso); ";"2000";"2006";44.077598;10.104292
http://www.sigecweb.beniculturali.it/images/fullsize/ICCD50007125/ICCD2729974_sbaaas_pi_293051.jpg;"busto, opera isolata";"";"ritratto di donna";"OA_3.00";"09 00525806";"Italia, Toscana, MS, CarraraVia P. Tacca, 36";"scuola, I.P.I.A.M. ""P. Tacca"", Via P. Tacca, 36, Gipsoteca dell'Istituto Tacca, gipsoteca";"sec. XVIII seconda metà; 1750  - 1799 [analisi stilistica]";"ambito francese(bibliografia)";"";"gesso";"alt. 55, largh. 40, ";"proprietà Stato, Ministero della Pubblica Istruzione -  I.P.I.A.M. ""P. Tacca""";"Poggiante su base sagomata, fanciulla in décollète, atteggiata a sorriso, con il capo reclinato lievemente verso sinistra e capelli raccolti a ciuffoNR (recupero pregresso)";"";"L'opera che non compare menzionata tra i documenti dell'archivio Lazzerini è comunque da ascruversi al periodo che vide stretti contatti tra lo studio carrarese e alcuni esponenti della scultura francese prerivoluzionaria.";"";"";"";"";"";"";"Passeggia L.(	1997)";"busto";"";"";"Toscana";"MS";"Carrara";"";"";"";"Via P. Tacca, 36";"";"";"";"";"";"S39";"S39";"Compilatore scheda: Passeggia L.; Funzionario responsabile: Russo S.; Aggiornamento-revisione: ARTPAST/ Ferraro M. (2006), Referente scientifico: NR (recupero pregresso); ";"2000";"2006";44.077598;10.104292
http://www.sigecweb.beniculturali.it/images/fullsize/ICCD50007125/ICCD2730047_sbaaas_pi_293097.jpg;"modello, opera isolata";"";"ritratto di donna";"OA_3.00";"09 00525833";"Italia, Toscana, MS, CarraraVia P. Tacca, 36";"scuola, I.P.I.A.M. ""P. Tacca"", Via P. Tacca, 36, Gipsoteca dell'Istituto Tacca, gipsoteca";"sec. XIX ; 1882  - 1882 [documentazione]";"";"Lazzerini Alessandro (1860-1869/ 1942), ";"gesso";"alt. 71, largh. 75, ";"proprietà Stato, Ministero della Pubblica Istruzione -  I.P.I.A.M. ""P. Tacca""";"poggiante su plinto sagomato il busto ritratto di Vittoria Augusta di Borbone, raffigurata con ampio decollète, veste annodata al sommo del petto, capo eretto, capelli raccolti in alto da cerchio con ciocca discendente lungo la parte destraNR (recupero pregresso)";"";"Il modello fu realizzato da Alessandro Lazzerini per l'esecuzione del busto ritratto della Principessa Vittoria Augusta di Borbone, nel 1882 per Villa Marlia a Lucca";"";"";"";"";"";"";"Passeggia L.(	1997)";"modello";"";"";"Toscana";"MS";"Carrara";"";"";"";"Via P. Tacca, 36";"";"";"";"";"";"S39";"S39";"Compilatore scheda: Passeggia L.; Funzionario responsabile: Russo S.; Aggiornamento-revisione: ARTPAST/ Ferraro M. (2006), Referente scientifico: NR (recupero pregresso); ";"2000";"2006";44.077598;10.104292
http://www.sigecweb.beniculturali.it/images/fullsize/ICCD50007125/ICCD2730049_sbaaas_pi_293098.jpg;"busto, opera isolata";"";"ritratto di donna";"OA_3.00";"09 00525834";"Italia, Toscana, MS, CarraraVia P. Tacca, 36";"scuola, I.P.I.A.M. ""P. Tacca"", Via P. Tacca, 36, Gipsoteca dell'Istituto Tacca, gipsoteca";"sec. XIX ; 1883  - 1883 [documentazione]";"";"Lazzerini Alessandro (1860-1869/ 1942), ";"gesso";"alt. 78, largh. 61, ";"proprietà Stato, Ministero della Pubblica Istruzione -  I.P.I.A.M. ""P. Tacca""";"poggiante su peduccio sagomato, modanato e mistilineo busto raffigurante Teonia Lazzerini, a capo eretto, capelli raccolti a ciuffo, abito con jabot e fiocco, mantello annodato sotto il pettoNR (recupero pregresso)";"";"L'identificazione di quest'opera, priva di numerazione inventariale, è stata resa possibile dall'analisi dell'Archivio Fotografico Lazzerini: il busto raffigura Teonia, madre di Alessandro Lazzerini, eseguito nel 1883";"";"";"";"";"";"";"Passeggia L.(	1997)";"busto";"";"";"Toscana";"MS";"Carrara";"";"";"";"Via P. Tacca, 36";"";"";"";"";"";"S39";"S39";"Compilatore scheda: Passeggia L.; Funzionario responsabile: Russo S.; Aggiornamento-revisione: ARTPAST/ Ferraro M. (2006), Referente scientifico: NR (recupero pregresso); ";"2000";"2006";44.077598;10.104292
http://www.sigecweb.beniculturali.it/images/fullsize/ICCD50007125/ICCD2730045_sbaaas_pi_293096.jpg;"busto, opera isolata";"";"figura femminile";"OA_3.00";"09 00525832";"Italia, Toscana, MS, CarraraVia P. Tacca, 36";"scuola, I.P.I.A.M. ""P. Tacca"", Via P. Tacca, 36, Gipsoteca dell'Istituto Tacca, gipsoteca";"sec. XIX fine; 1890  - 1899 [documentazione]";"ambito scandinavo(documentazione)";"";"gesso";"";"proprietà Stato, Ministero della Pubblica Istruzione -  I.P.I.A.M. ""P. Tacca""";"busto raffigurante parte superiore Pittrice PompeianaNR (recupero pregresso)";"";"";"";"";"";"";"";"";"Passeggia L.(	1997)";"busto";"";"";"Toscana";"MS";"Carrara";"";"";"";"Via P. Tacca, 36";"";"";"";"";"";"S39";"S39";"Compilatore scheda: Passeggia L.; Funzionario responsabile: Russo S.; Aggiornamento-revisione: ARTPAST/ Ferraro M. (2006), Referente scientifico: NR (recupero pregresso); ";"2000";"2006";44.077598;10.104292
http://www.sigecweb.beniculturali.it/images/fullsize/ICCD50007125/ICCD2730123_sbaaas_pi_294923.jpg;"statua, opera isolata";"";"gallo";"OA_3.00";"09 00527076";"Italia, Toscana, MS, CarraraNR (recupero pregresso)";"scuola, I.P.I.A.M. ""P. Tacca"", NR (recupero pregresso), Gipsoteca dell'Istituto Tacca, gipsoteca";"secc. XIX/ XX fine/inizio; 1890  - 1910 [analisi stilistica]";"bottega italiana(analisi stilistica)";"";"gesso";"alt. 53, largh. 35, ";"proprietà Stato, Ministero della Pubblica Istruzione -  I.P.I.A.M. ""P. Tacca""";"gallo in atto di cantare, poggiato a cespuglio florealeNR (recupero pregresso)";"";"";"";"";"";"";"";"";"";"statua";"";"";"Toscana";"MS";"Carrara";"";"";"";"NR (recupero pregresso)";"";"";"";"";"";"S39";"S39";"Compilatore scheda: Passeggia L.; Funzionario responsabile: Russo S.; Aggiornamento-revisione: ARTPAST/ Ferraro M. (2006), Referente scientifico: NR (recupero pregresso); ";"2001";"2006";44.082117;10.094062
http://www.sigecweb.beniculturali.it/images/fullsize/ICCD50007125/ICCD2730125_sbaaas_pi_294924.jpg;"statua, opera isolata";"";"rinoceronte";"OA_3.00";"09 00527077";"Italia, Toscana, MS, CarraraNR (recupero pregresso)";"scuola, I.P.I.A.M. ""P. Tacca"", NR (recupero pregresso), Gipsoteca dell'Istituto Tacca, gipsoteca";"sec. XX metà; 1940  - 1960 [analisi stilistica]";"bottega italiana(analisi stilistica)";"";"gesso";"alt. 15, largh. 24, ";"proprietà Stato, Ministero della Pubblica Istruzione -  I.P.I.A.M. ""P. Tacca""";"statua raffigurante rinoceronte stilizzatoNR (recupero pregresso)";"";"";"";"";"";"";"";"";"";"statua";"";"";"Toscana";"MS";"Carrara";"";"";"";"NR (recupero pregresso)";"";"";"";"";"";"S39";"S39";"Compilatore scheda: Passeggia L.; Funzionario responsabile: Russo S.; Aggiornamento-revisione: ARTPAST/ Ferraro M. (2006), Referente scientifico: NR (recupero pregresso); ";"2001";"2006";44.082117;10.094062
http://www.sigecweb.beniculturali.it/images/fullsize/ICCD50007125/ICCD2730129_sbaaas_pi_294926.jpg;"busto, opera isolata";"David";"busto maschile";"OA_3.00";"09 00527079";"Italia, Toscana, MS, CarraraNR (recupero pregresso)";"scuola, I.P.I.A.M. ""P. Tacca"", NR (recupero pregresso), Gipsoteca dell'Istituto Tacca, gipsoteca";"sec. XX metà; 1940  - 1960 [analisi stilistica]";"bottega italiana(analisi stilistica)";"";"gesso";"alt. 37, largh. 39, ";"proprietà Stato, Ministero della Pubblica Istruzione -  I.P.I.A.M. ""P. Tacca""";"busto raffigurante giovanetto con pettorale in cuoioNR (recupero pregresso)";"";"";"";"";"";"";"";"";"";"busto";"";"";"Toscana";"MS";"Carrara";"";"";"";"NR (recupero pregresso)";"";"";"";"";"";"S39";"S39";"Compilatore scheda: Passeggia L.; Funzionario responsabile: Russo S.; Aggiornamento-revisione: ARTPAST/ Ferraro M. (2006), Referente scientifico: NR (recupero pregresso); ";"2001";"2006";44.082117;10.094062
http://www.sigecweb.beniculturali.it/images/fullsize/ICCD50007125/ICCD2730131_sbaaas_pi_294927.jpg;"busto, opera isolata";"";"putto";"OA_3.00";"09 00527080";"Italia, Toscana, MS, CarraraNR (recupero pregresso)";"scuola, I.P.I.A.M. ""P. Tacca"", NR (recupero pregresso), Gipsoteca dell'Istituto Tacca, gipsoteca";"sec. XX metà; 1940  - 1960 [analisi stilistica]";"bottega italiana(analisi stilistica)";"";"gesso";"alt. 47, largh. 30, ";"proprietà Stato, Ministero della Pubblica Istruzione -  I.P.I.A.M. ""P. Tacca""";"busto raffigurante putto che rideNR (recupero pregresso)";"";"";"";"";"";"";"";"";"";"busto";"";"";"Toscana";"MS";"Carrara";"";"";"";"NR (recupero pregresso)";"";"";"";"";"";"S39";"S39";"Compilatore scheda: Passeggia L.; Funzionario responsabile: Russo S.; Aggiornamento-revisione: ARTPAST/ Ferraro M. (2006), Referente scientifico: NR (recupero pregresso); ";"2001";"2006";44.082117;10.094062
http://www.sigecweb.beniculturali.it/images/fullsize/ICCD50007125/ICCD2730127_sbaaas_pi_294925.jpg;"rilievo, opera isolata";"";"papavero";"OA_3.00";"09 00527078";"Italia, Toscana, MS, CarraraNR (recupero pregresso)";"scuola, I.P.I.A.M. ""P. Tacca"", NR (recupero pregresso), Gipsoteca dell'Istituto Tacca, gipsoteca";"sec. XX metà; 1940  - 1960 [analisi stilistica]";"bottega italiana(analisi stilistica)";"";"gesso";"alt. 37, largh. 29, ";"proprietà Stato, Ministero della Pubblica Istruzione -  I.P.I.A.M. ""P. Tacca""";"stelo di papavero con petali del fiore in aggettoNR (recupero pregresso)";"";"";"";"";"";"";"";"";"";"rilievo";"";"";"Toscana";"MS";"Carrara";"";"";"";"NR (recupero pregresso)";"";"";"";"";"";"S39";"S39";"Compilatore scheda: Passeggia L.; Funzionario responsabile: Russo S.; Aggiornamento-revisione: ARTPAST/ Ferraro M. (2006), Referente scientifico: NR (recupero pregresso); ";"2001";"2006";44.082117;10.094062
http://www.sigecweb.beniculturali.it/images/fullsize/ICCD50007125/ICCD2730219_sbaaas_pi_294972.jpg;"busto, opera isolata";"";"Augusto loricato";"OA_3.00";"09 00527124";"Italia, Toscana, MS, CarraraNR (recupero pregresso)";"scuola, I.P.I.A.M. ""P. Tacca"", NR (recupero pregresso), Gipsoteca dell'Istituto Tacca, gipsoteca";"sec. XX metà; 1940  - 1960 [analisi stilistica]";"bottega italiana(analisi stilistica)";"";"gesso";"alt. 70, largh. 47, ";"proprietà Stato, Ministero della Pubblica Istruzione -  I.P.I.A.M. ""P. Tacca""";"busto raffigurante condottiero romano con loricaNR (recupero pregresso)";"";"";"";"";"";"";"";"";"";"busto";"";"";"Toscana";"MS";"Carrara";"";"";"";"NR (recupero pregresso)";"";"";"";"";"";"S39";"S39";"Compilatore scheda: Passeggia L.; Funzionario responsabile: Russo S.; Aggiornamento-revisione: ARTPAST/ Ferraro M. (2006), Referente scientifico: NR (recupero pregresso); ";"2001";"2006";44.082117;10.094062
http://www.sigecweb.beniculturali.it/images/fullsize/ICCD50007125/ICCD2730221_sbaaas_pi_294973.jpg;"statua, opera isolata";"";"putto";"OA_3.00";"09 00527125";"Italia, Toscana, MS, CarraraNR (recupero pregresso)";"scuola, I.P.I.A.M. ""P. Tacca"", NR (recupero pregresso), Gipsoteca dell'Istituto Tacca, gipsoteca";"secc. XIX/ XX fine/inizio; 1890  - 1910 [analisi stilistica]";"bottega italiana(analisi stilistica)";"";"gesso";"alt. 57, largh. 30, ";"proprietà Stato, Ministero della Pubblica Istruzione -  I.P.I.A.M. ""P. Tacca""";"putto nudo, seduto, sorregge con entrambe le mani, poggiata sulla gamba destra, anforaNR (recupero pregresso)";"";"";"";"";"";"";"";"";"";"statua";"";"";"Toscana";"MS";"Carrara";"";"";"";"NR (recupero pregresso)";"";"";"";"";"";"S39";"S39";"Compilatore scheda: Passeggia L.; Funzionario responsabile: Russo S.; Aggiornamento-revisione: ARTPAST/ Ferraro M. (2006), Referente scientifico: NR (recupero pregresso); ";"2001";"2006";44.082117;10.094062
http://www.sigecweb.beniculturali.it/images/fullsize/ICCD50007125/ICCD2730133_sbaaas_pi_294928.jpg;"statua, opera isolata";"";"leone";"OA_3.00";"09 00527081";"Italia, Toscana, MS, CarraraNR (recupero pregresso)";"scuola, I.P.I.A.M. ""P. Tacca"", NR (recupero pregresso), Gipsoteca dell'Istituto Tacca, gipsoteca";"sec. XX metà; 1940  - 1960 [analisi stilistica]";"bottega italiana(analisi stilistica)";"";"gesso";"alt. 35, largh. 33, ";"proprietà Stato, Ministero della Pubblica Istruzione -  I.P.I.A.M. ""P. Tacca""";"leone seduto recante la zampa anteriore sinistra sopra sferaNR (recupero pregresso)";"";"";"";"";"";"";"";"";"";"statua";"";"";"Toscana";"MS";"Carrara";"";"";"";"NR (recupero pregresso)";"";"";"";"";"";"S39";"S39";"Compilatore scheda: Passeggia L.; Funzionario responsabile: Russo S.; Aggiornamento-revisione: ARTPAST/ Ferraro M. (2006), Referente scientifico: NR (recupero pregresso); ";"2001";"2006";44.082117;10.094062
http://www.sigecweb.beniculturali.it/images/fullsize/ICCD50007125/ICCD2730225_sbaaas_pi_294975.jpg;"statua, opera isolata";"";"figura maschile";"OA_3.00";"09 00527127";"Italia, Toscana, MS, CarraraNR (recupero pregresso)";"scuola, I.P.I.A.M. ""P. Tacca"", NR (recupero pregresso), Gipsoteca dell'Istituto Tacca, gipsoteca";"sec. XX inizio; 1900  - 1910 [analisi stilistica]";"bottega italiana(analisi stilistica)";"";"gesso";"alt. 45.5, largh. 16.5, ";"proprietà Stato, Ministero della Pubblica Istruzione -  I.P.I.A.M. ""P. Tacca""";"figura maschile stante, in posizione chiastica, vestito con abiti rinascimentaliNR (recupero pregresso)";"";"";"";"";"";"";"";"";"";"statua";"";"";"Toscana";"MS";"Carrara";"";"";"";"NR (recupero pregresso)";"";"";"";"";"";"S39";"S39";"Compilatore scheda: Passeggia L.; Funzionario responsabile: Russo S.; Aggiornamento-revisione: ARTPAST/ Ferraro M. (2006), Referente scientifico: NR (recupero pregresso); ";"2001";"2006";44.082117;10.094062
http://www.sigecweb.beniculturali.it/images/fullsize/ICCD50007125/ICCD2730227_sbaaas_pi_294976.jpg;"statua, opera isolata";"";"leone";"OA_3.00";"09 00527128";"Italia, Toscana, MS, CarraraNR (recupero pregresso)";"scuola, I.P.I.A.M. ""P. Tacca"", NR (recupero pregresso), Gipsoteca dell'Istituto Tacca, gipsoteca";"sec. XX metà; 1940  - 1960 [analisi stilistica]";"bottega italiana(analisi stilistica)";"";"gesso";"alt. 25, largh. 34, ";"proprietà Stato, Ministero della Pubblica Istruzione -  I.P.I.A.M. ""P. Tacca""";"leone stante, in posizione di attesaNR (recupero pregresso)";"";"";"";"";"";"";"";"";"";"statua";"";"";"Toscana";"MS";"Carrara";"";"";"";"NR (recupero pregresso)";"";"";"";"";"";"S39";"S39";"Compilatore scheda: Passeggia L.; Funzionario responsabile: Russo S.; Aggiornamento-revisione: ARTPAST/ Ferraro M. (2006), Referente scientifico: NR (recupero pregresso); ";"2001";"2006";44.082117;10.094062
http://www.sigecweb.beniculturali.it/images/fullsize/ICCD50007125/ICCD2730229_sbaaas_pi_294977.jpg;"acquasantiera da parete, opera isolata";"";"";"OA_3.00";"09 00527129";"Italia, Toscana, MS, CarraraNR (recupero pregresso)";"scuola, I.P.I.A.M. ""P. Tacca"", NR (recupero pregresso), Gipsoteca dell'Istituto Tacca, gipsoteca";"sec. XX metà; 1940  - 1960 [analisi stilistica]";"bottega italiana(analisi stilistica)";"";"gesso";"alt. 47, largh. 31, ";"proprietà Stato, Ministero della Pubblica Istruzione -  I.P.I.A.M. ""P. Tacca""";"conchiglia sorretta cherubino decorato da cartiglioNR (recupero pregresso)";"Classe di appartenenza: commemorativa;  francese;  Tecnica di scrittura: a incisione;  Tipo di caratteri: lettere capitali;  Posizione: cartiglio; en m..moir de piar..tout de chan..priez Dieu";"";"";"";"";"";"";"";"";"acquasantiera da parete";"";"";"Toscana";"MS";"Carrara";"";"";"";"NR (recupero pregresso)";"";"";"";"";"";"S39";"S39";"Compilatore scheda: Passeggia L.; Funzionario responsabile: Russo S.; Aggiornamento-revisione: ARTPAST/ Ferraro M. (2006), Referente scientifico: NR (recupero pregresso); ";"2001";"2006";44.082117;10.094062
http://www.sigecweb.beniculturali.it/images/fullsize/ICCD50007125/ICCD2730223_sbaaas_pi_294974.jpg;"statua, elemento d'insieme";"";"testa d'uomo";"OA_3.00";"09 00527126";"Italia, Toscana, MS, CarraraNR (recupero pregresso)";"scuola, I.P.I.A.M. ""P. Tacca"", NR (recupero pregresso), Gipsoteca dell'Istituto Tacca, gipsoteca";"sec. XX prima metà; 1900  - 1949 [analisi stilistica]";"bottega italiana(analisi stilistica)";"";"gesso";"alt. 40, largh. 15, ";"proprietà Stato, Ministero della Pubblica Istruzione";"testa maschile raffigurante anziano barbuto a capo velatoNR (recupero pregresso)";"";"";"";"";"";"";"";"";"";"statua";"";"";"Toscana";"MS";"Carrara";"";"";"";"NR (recupero pregresso)";"";"";"";"";"";"S39";"S39";"Compilatore scheda: Passeggia L.; Funzionario responsabile: Russo S.; Aggiornamento-revisione: ARTPAST/ Ferraro M. (2006), Referente scientifico: NR (recupero pregresso); ";"2001";"2006";44.082117;10.094062
http://www.sigecweb.beniculturali.it/images/fullsize/ICCD50007125/ICCD2730315_sbaaas_pi_295020.jpg;"rilievo, elemento d'insieme";"";"";"OA_3.00";"09 00527172";"Italia, Toscana, MS, CarraraNR (recupero pregresso)";"scuola, I.P.I.A.M. ""P. Tacca"", NR (recupero pregresso), Gipsoteca dell'Istituto Tacca, gipsoteca";"sec. XX inizio; 1900  - 1910 [analisi stilistica]";"bottega italiana(analisi stilistica)";"";"gesso";"alt. 28.5, largh. 35, ";"proprietà Stato, Ministero della Pubblica Istruzione -  I.P.I.A.M. ""P. Tacca""";"rilievo rettangolare mistilineo decorato da foglia ondulata e pigna rivolta verso l'altoNR (recupero pregresso)";"";"";"";"";"";"";"";"";"";"rilievo";"";"";"Toscana";"MS";"Carrara";"";"";"";"NR (recupero pregresso)";"";"";"";"";"";"S39";"S39";"Compilatore scheda: Passeggia L.; Funzionario responsabile: Russo S.; Aggiornamento-revisione: ARTPAST/ Ferraro M. (2006), Referente scientifico: NR (recupero pregresso); ";"2001";"2006";44.082117;10.094062
http://www.sigecweb.beniculturali.it/images/fullsize/ICCD50007125/ICCD2730321_sbaaas_pi_295023.jpg;"rilievo, elemento d'insieme";"";"";"OA_3.00";"09 00527175";"Italia, Toscana, MS, CarraraNR (recupero pregresso)";"scuola, I.P.I.A.M. ""P. Tacca"", NR (recupero pregresso), Gipsoteca dell'Istituto Tacca, gipsoteca";"sec. XX inizio; 1900  - 1910 [analisi stilistica]";"bottega italiana(analisi stilistica)";"";"gesso";"alt. 50, largh. 43, ";"proprietà Stato, Ministero della Pubblica Istruzione -  I.P.I.A.M. ""P. Tacca""";"elemento di colonna recante nella parte inferiore scanalature centinate e nella parte superiore doppia cornice decoirata da palmette e spirali, nonché ovoli e scanalatureNR (recupero pregresso)";"";"";"";"";"";"";"";"";"";"rilievo";"";"";"Toscana";"MS";"Carrara";"";"";"";"NR (recupero pregresso)";"";"";"";"";"";"S39";"S39";"Compilatore scheda: Passeggia L.; Funzionario responsabile: Russo S.; Aggiornamento-revisione: ARTPAST/ Ferraro M. (2006), Referente scientifico: NR (recupero pregresso); ";"2001";"2006";44.082117;10.094062
http://www.sigecweb.beniculturali.it/images/fullsize/ICCD50007125/ICCD2730323_sbaaas_pi_295024.jpg;"statua, opera isolata";"";"coniglio";"OA_3.00";"09 00527176";"Italia, Toscana, MS, CarraraNR (recupero pregresso)";"scuola, I.P.I.A.M. ""P. Tacca"", NR (recupero pregresso), Gipsoteca dell'Istituto Tacca, gipsoteca";"sec. XX metà; 1940  - 1960 [analisi stilistica]";"bottega italiana(analisi stilistica)";"";"gesso";"alt. 18, largh. 30, ";"proprietà Stato, Ministero della Pubblica Istruzione -  I.P.I.A.M. ""P. Tacca""";"coniglio accovacciato in posizione di attesaNR (recupero pregresso)";"";"";"";"";"";"";"";"";"";"statua";"";"";"Toscana";"MS";"Carrara";"";"";"";"NR (recupero pregresso)";"";"";"";"";"";"S39";"S39";"Compilatore scheda: Passeggia L.; Funzionario responsabile: Russo S.; Aggiornamento-revisione: ARTPAST/ Ferraro M. (2006), Referente scientifico: NR (recupero pregresso); ";"2001";"2006";44.082117;10.094062
http://www.sigecweb.beniculturali.it/images/fullsize/ICCD50007125/ICCD2730317_sbaaas_pi_295021.jpg;"cornice, elemento d'insieme";"";"";"OA_3.00";"09 00527173";"Italia, Toscana, MS, CarraraNR (recupero pregresso)";"scuola, I.P.I.A.M. ""P. Tacca"", NR (recupero pregresso), Gipsoteca dell'Istituto Tacca, gipsoteca";"sec. XX metà; 1940  - 1960 [analisi stilistica]";"bottega italiana(analisi stilistica)";"";"gesso";"alt. 35, largh. 35, ";"proprietà Stato, Ministero della Pubblica Istruzione -  I.P.I.A.M. ""P. Tacca""";"sezione di cornice architettonica con rilievo fitomorfoNR (recupero pregresso)";"";"";"";"";"";"";"";"";"";"cornice";"";"";"Toscana";"MS";"Carrara";"";"";"";"NR (recupero pregresso)";"";"";"";"";"";"S39";"S39";"Compilatore scheda: Passeggia L.; Funzionario responsabile: Russo S.; Aggiornamento-revisione: ARTPAST/ Ferraro M. (2006), Referente scientifico: NR (recupero pregresso); ";"2001";"2006";44.082117;10.094062
http://www.sigecweb.beniculturali.it/images/fullsize/ICCD50007125/ICCD2730319_sbaaas_pi_295022.jpg;"formella, opera isolata";"";"";"OA_3.00";"09 00527174";"Italia, Toscana, MS, CarraraNR (recupero pregresso)";"scuola, I.P.I.A.M. ""P. Tacca"", NR (recupero pregresso), Gipsoteca dell'Istituto Tacca, gipsoteca";"sec. XX metà; 1940  - 1960 [analisi stilistica]";"bottega italiana(analisi stilistica)";"";"gesso";"alt. 36, largh. 43, ";"proprietà Stato, Ministero della Pubblica Istruzione -  I.P.I.A.M. ""P. Tacca""";"su fondo liscio tralcio fitomorfo in obliquoNR (recupero pregresso)";"";"";"";"";"";"";"";"";"";"formella";"";"";"Toscana";"MS";"Carrara";"";"";"";"NR (recupero pregresso)";"";"";"";"";"";"S39";"S39";"Compilatore scheda: Passeggia L.; Funzionario responsabile: Russo S.; Aggiornamento-revisione: ARTPAST/ Ferraro M. (2006), Referente scientifico: NR (recupero pregresso); ";"2001";"2006";44.082117;10.094062
http://www.sigecweb.beniculturali.it/images/fullsize/ICCD50007125/ICCD2730325_sbaaas_pi_295025.jpg;"formella, opera isolata";"";"";"OA_3.00";"09 00527177";"Italia, Toscana, MS, CarraraNR (recupero pregresso)";"scuola, I.P.I.A.M. ""P. Tacca"", NR (recupero pregresso), Gipsoteca dell'Istituto Tacca, gipsoteca";"sec. XX metà; 1940  - 1960 [analisi stilistica]";"bottega italiana(analisi stilistica)";"";"gesso";"alt. 32, largh. 22, ";"proprietà Stato, Ministero della Pubblica Istruzione -  I.P.I.A.M. ""P. Tacca""";"su fondo piatto rosa con foglie sormontata da tre bocciuoliNR (recupero pregresso)";"";"";"";"";"";"";"";"";"";"formella";"";"";"Toscana";"MS";"Carrara";"";"";"";"NR (recupero pregresso)";"";"";"";"";"";"S39";"S39";"Compilatore scheda: Passeggia L.; Funzionario responsabile: Russo S.; Aggiornamento-revisione: ARTPAST/ Ferraro M. (2006), Referente scientifico: NR (recupero pregresso); ";"2001";"2006";44.082117;10.094062
http://www.sigecweb.beniculturali.it/images/fullsize/ICCD50007125/ICCD2729605_sbaaas_pi_292863.jpg;"scultura";"";"Sacro Cuore di Gesù";"OA_3.00";"09 00525623";"Italia, Toscana, MS, CarraraVia P. Tacca, 36";"scuola, I.P.I.A.M. ""P. Tacca"", Via P. Tacca, 36, Gipsoteca dell'Istituto Tacca, gipsoteca";"sec. XX prima metà; 1900  - 1949 [analisi stilistica]";"bottega italiana(analisi stilistica)";"";"gesso";"alt. 87, largh. 31, ";"proprietà Stato, Ministero della Pubblica Istruzione -  I.P.I.A.M. ""P. Tacca""";"statua raffigurante Cristo stante che con la sinistra si indica il pettoNR (recupero pregresso)";"";"";"";"";"";"";"";"";"";"scultura";"";"";"Toscana";"MS";"Carrara";"";"";"";"Via P. Tacca, 36";"";"";"";"";"";"S39";"S39";"Compilatore scheda: Passeggia L.; Funzionario responsabile: Russo S.; Aggiornamento-revisione: ARTPAST/ Ferraro M. (2006), Referente scientifico: NR (recupero pregresso); ";"2000";"2006";44.077598;10.104292
http://www.sigecweb.beniculturali.it/images/fullsize/ICCD50007125/ICCD2729609_sbaaas_pi_292865.jpg;"gruppo scultoreo";"";"Battesimo di Cristo";"OA_3.00";"09 00525625";"Italia, Toscana, MS, CarraraVia P. Tacca, 36";"scuola, I.P.I.A.M. ""P. Tacca"", Via P. Tacca, 36, Gipsoteca dell'Istituto Tacca, gipsoteca";"sec. XX prima metà; 1900  - 1949 [analisi stilistica]";"bottega italiana(analisi stilistica)";"";"gesso";"alt. 140, largh. 75, ";"proprietà Stato, Ministero della Pubblica Istruzione -  I.P.I.A.M. ""P. Tacca""";"gruppo scultoreo raffigurante Cristo inginocchiato in attesa di ricevere il battesimo da San Giovanni Battista stante, recante bastone nella sinistraNR (recupero pregresso)";"";"";"";"";"";"";"";"";"";"gruppo scultoreo";"";"";"Toscana";"MS";"Carrara";"";"";"";"Via P. Tacca, 36";"";"";"";"";"";"S39";"S39";"Compilatore scheda: Passeggia L.; Funzionario responsabile: Russo S.; Aggiornamento-revisione: ARTPAST/ Ferraro M. (2006), Referente scientifico: NR (recupero pregresso); ";"2000";"2006";44.077598;10.104292
http://www.sigecweb.beniculturali.it/images/fullsize/ICCD50007125/ICCD2729615_sbaaas_pi_292868.jpg;"capitello composito, frammento";"";"motivi decorativi vegetali";"OA_3.00";"09 00525628";"Italia, Toscana, MS, CarraraVia P. Tacca, 36";"scuola, I.P.I.A.M. ""P. Tacca"", Via P. Tacca, 36, Gipsoteca dell'Istituto Tacca, gipsoteca";"sec. XX prima metà; 1900  - 1949 [analisi stilistica]";"bottega italiana(analisi stilistica)";"";"gesso";"alt. 59, largh. 45, ";"proprietà Stato, Ministero della Pubblica Istruzione -  I.P.I.A.M. ""P. Tacca""";"porzione di capitello decorato da ovuli, modanature e motivi fitomorfiNR (recupero pregresso)";"";"";"";"";"";"";"";"";"";"capitello composito";"";"";"Toscana";"MS";"Carrara";"";"";"";"Via P. Tacca, 36";"";"";"";"";"";"S39";"S39";"Compilatore scheda: Passeggia L.; Funzionario responsabile: Russo S.; Aggiornamento-revisione: ARTPAST/ Ferraro M. (2006), Referente scientifico: NR (recupero pregresso); ";"2000";"2006";44.077598;10.104292
http://www.sigecweb.beniculturali.it/images/fullsize/ICCD50007125/ICCD2729617_sbaaas_pi_292869.jpg;"rilievo, frammento";"";"motivi decorativi a grottesche";"OA_3.00";"09 00525629";"Italia, Toscana, MS, CarraraVia P. Tacca, 36";"scuola, I.P.I.A.M. ""P. Tacca"", Via P. Tacca, 36, Gipsoteca dell'Istituto Tacca, gipsoteca";"secc. XIX/ XX fine/inizio; 1890  - 1910 [analisi stilistica]";"bottega italiana(analisi stilistica)";"";"gesso";"alt. 38, largh. 53, ";"proprietà Stato, Ministero della Pubblica Istruzione -  I.P.I.A.M. ""P. Tacca""";"fregio raffigurante motivo a grottesca con mascherone, decorazioni fitomorfe, zoomorfe e medaglione centrale con profilo antropomorfo encomiasticoNR (recupero pregresso)";"";"";"";"";"";"";"";"";"";"rilievo";"";"";"Toscana";"MS";"Carrara";"";"";"";"Via P. Tacca, 36";"";"";"";"";"";"S39";"S39";"Compilatore scheda: Passeggia L.; Funzionario responsabile: Russo S.; Aggiornamento-revisione: ARTPAST/ Ferraro M. (2006), Referente scientifico: NR (recupero pregresso); ";"2000";"2006";44.077598;10.104292
http://www.sigecweb.beniculturali.it/images/fullsize/ICCD50007125/ICCD2729696_sbaaas_pi_292909.jpg;"rilievo, opera isolata";"";"motivo decorativo floreale";"OA_3.00";"09 00525669";"Italia, Toscana, MS, CarraraVia P. Tacca, 36";"scuola, I.P.I.A.M. ""P. Tacca"", Via P. Tacca, 36, Gipsoteca dell'Istituto Tacca, gipsoteca";"sec. XX metà; 1940  - 1960 [analisi stilistica]";"bottega italiana(analisi stilistica)";"";"gesso";"alt. 48, largh. 30, ";"proprietà Stato, Ministero della Pubblica Istruzione -  I.P.I.A.M. ""P. Tacca""";"formella rettangolare raffigurante tralcio di roseNR (recupero pregresso)";"";"";"";"";"";"";"";"";"";"rilievo";"";"";"Toscana";"MS";"Carrara";"";"";"";"Via P. Tacca, 36";"";"";"";"";"";"S39";"S39";"Compilatore scheda: Passeggia L.; Funzionario responsabile: Russo S.; Aggiornamento-revisione: ARTPAST/ Ferraro M. (2006), Referente scientifico: NR (recupero pregresso); ";"2000";"2006";44.077598;10.104292
;"rilievo, elemento d'insieme";"I morti di Vinca";"Martirio politico";"OA_3.00";"09 00552273 - 3";"Italia, Toscana, MS, CarraraNR (recupero pregresso)";"palazzo, Museo Civico del Marmo, NR (recupero pregresso), Museo Civico del Marmo, Diciannovesima sala, prima lato mare";"sec. XX ; 1974  - 1974 [documentazione]; sec. XX ; 1984  - 1984 [data]";"";"Binelli Cherubino (1920/ 2001), ";"stagno";"mm., alt. 230, largh. 300, prof. 50, ";"proprietà Ente pubblico territoriale, Comune di Carrara";"Figura umana. Rilievo in stagno sorretto da una struttura in plexiglas su una base lignea con scritto ""I Morti di Vinca. Luglio 1944-1984. C. Binelli""NR (recupero pregresso)";"";"In questa scultura Binelli accentua il suo modo di fare scultura ""per striscie"" dato che lo stesso corpo dell'uomo sembra prendere vita da alcune delle striscie che lo affiancano..Nella parte di destra è,infatti, rappresentato il corpo di un uomo impiccato, visibile al di là di una serie di striscie, mentre dalla parte opposta rimane isolato lo strumento del boia.";"";"";"";"";"";"";"Di Genova G.(	1983); Dolce E.(	2000)p.226";"rilievo";"";"";"Toscana";"MS";"Carrara";"";"Fossola (frazione)";"";"NR (recupero pregresso)";"";"";"";"";"";"S39";"S39";"Compilatore scheda: Tusini I.; Funzionario responsabile: Fusani I.; Aggiornamento-revisione: ARTPAST/ Ferraro M. (2006), Referente scientifico: NR (recupero pregresso); ";"2002";"2006";44.082117;10.094062
http://www.sigecweb.beniculturali.it/images/fullsize/ICCD50007125/ICCD2729793_sbaaas_pi_292958.jpg;"decorazione plastico-architettonica, frammento";"";"";"OA_3.00";"09 00525718";"Italia, Toscana, MS, CarraraVia P. Tacca, 36";"scuola, I.P.I.A.M. ""P. Tacca"", Via P. Tacca, 36, Gipsoteca dell'Istituto Tacca, gipsoteca";"sec. XX metà; 1940  - 1960 [analisi stilistica]";"bottega italiana(analisi stilistica)";"";"gesso";"alt. 25, largh. 58, ";"proprietà Stato, Ministero della Pubblica Istruzione -  I.P.I.A.M. ""P. Tacca""";"fregio architettonico in lieve aggetto decorato con elementi fitomorfi, scanalature e ovuliNR (recupero pregresso)";"";"";"";"";"";"";"";"";"";"decorazione plastico-architettonica";"";"";"Toscana";"MS";"Carrara";"";"";"";"Via P. Tacca, 36";"";"";"";"";"";"S39";"S39";"Compilatore scheda: Passeggia L.; Funzionario responsabile: Russo S.; Aggiornamento-revisione: ARTPAST/ Ferraro M. (2006), Referente scientifico: NR (recupero pregresso); ";"2000";"2006";44.077598;10.104292
http://www.sigecweb.beniculturali.it/images/fullsize/ICCD50007125/ICCD2729881_sbaaas_pi_293002.jpg;"rilievo, elemento d'insieme";"Trono Ludovisi, pannello laterale";"auleta";"OA_3.00";"09 00525762";"Italia, Toscana, MS, CarraraVia P. Tacca, 36";"scuola, I.P.I.A.M. ""P. Tacca"", Via P. Tacca, 36, Gipsoteca dell'Istituto Tacca, gipsoteca";"sec. XX metà; 1940  - 1960 [analisi stilistica]";"bottega italiana(analisi stilistica)";"";"gesso";"alt. 85, largh. 71, ";"proprietà Stato, Ministero della Pubblica Istruzione -  I.P.I.A.M. ""P. Tacca""";"figura femminile nuda di profilo, seduta su cuscino suona aulos a doppia cannaNR (recupero pregresso)";"";"";"";"";"";"";"";"";"";"rilievo";"";"";"Toscana";"MS";"Carrara";"";"";"";"Via P. Tacca, 36";"";"";"";"";"";"S39";"S39";"Compilatore scheda: Passeggia L.; Funzionario responsabile: Russo S.; Aggiornamento-revisione: ARTPAST/ Ferraro M. (2006), Referente scientifico: NR (recupero pregresso); ";"2000";"2006";44.077598;10.104292
http://www.sigecweb.beniculturali.it/images/fullsize/ICCD50007125/ICCD2729891_sbaaas_pi_293007.jpg;"statua, opera isolata";"";"fanciullo che scrive";"OA_3.00";"09 00525767";"Italia, Toscana, MS, CarraraVia P. Tacca, 36";"scuola, I.P.I.A.M. ""P. Tacca"", Via P. Tacca, 36, Gipsoteca dell'Istituto Tacca, gipsoteca";"sec. XIX prima metà; 1800  - 1849 [analisi stilistica]";"bottega italiana(analisi stilistica)";"";"gesso";"alt. 102, largh. 48, ";"proprietà Stato, Ministero della Pubblica Istruzione -  I.P.I.A.M. ""P. Tacca""";"fanciullo seduto intento a scrivere su quaderno poggiato sopra un piccolo scrittoioNR (recupero pregresso)";"";"";"";"";"";"";"";"";"";"statua";"";"";"Toscana";"MS";"Carrara";"";"";"";"Via P. Tacca, 36";"";"";"";"";"";"S39";"S39";"Compilatore scheda: Passeggia L.; Funzionario responsabile: Russo S.; Aggiornamento-revisione: ARTPAST/ Ferraro M. (2006), Referente scientifico: NR (recupero pregresso); ";"2000";"2006";44.077598;10.104292
http://www.sigecweb.beniculturali.it/images/fullsize/ICCD50007125/ICCD2729907_sbaaas_pi_293015.jpg;"rilievo, frammento";"";"scena pastorale";"OA_3.00";"09 00525775";"Italia, Toscana, MS, CarraraVia P. Tacca, 36";"scuola, I.P.I.A.M. ""P. Tacca"", Via P. Tacca, 36, Gipsoteca dell'Istituto Tacca, gipsoteca";"sec. XIX metà; 1840  - 1860 [analisi stilistica]";"bottega italiana(analisi stilistica)";"";"gesso";"alt. 43, largh. 47, ";"proprietà Stato, Ministero della Pubblica Istruzione -  I.P.I.A.M. ""P. Tacca""";"figura femminile stante, recante tra le braccia contenitore rettangolare, segue capra trascinata da figura maschile (?)NR (recupero pregresso)";"";"";"";"";"";"";"";"";"";"rilievo";"";"";"Toscana";"MS";"Carrara";"";"";"";"Via P. Tacca, 36";"";"";"";"";"";"S39";"S39";"Compilatore scheda: Passeggia L.; Funzionario responsabile: Russo S.; Aggiornamento-revisione: ARTPAST/ Ferraro M. (2006), Referente scientifico: NR (recupero pregresso); ";"2000";"2006";44.077598;10.104292
http://www.sigecweb.beniculturali.it/images/fullsize/ICCD50007125/ICCD2729909_sbaaas_pi_293016.jpg;"formella, opera isolata";"";"tentazione e caduta di Adamo e Eva";"OA_3.00";"09 00525776";"Italia, Toscana, MS, CarraraVia P. Tacca, 36";"scuola, I.P.I.A.M. ""P. Tacca"", Via P. Tacca, 36, Gipsoteca dell'Istituto Tacca, gipsoteca";"sec. XX seconda metà; 1950  - 1999 [analisi stilistica]";"bottega italiana(analisi stilistica)";"";"gesso";"alt. 99, largh. 79, ";"proprietà Stato, Ministero della Pubblica Istruzione -  I.P.I.A.M. ""P. Tacca""";"Adamo ed Eva stanti intorno all'albero del bene e del male con serpente antropomorfo che offre pomoNR (recupero pregresso)";"";"formella realizzata su modello di Iacopo della Quercia nel portale di San Petronio a Bologna";"";"";"";"";"";"";"";"formella";"";"";"Toscana";"MS";"Carrara";"";"";"";"Via P. Tacca, 36";"";"";"";"";"";"S39";"S39";"Compilatore scheda: Passeggia L.; Funzionario responsabile: Russo S.; Aggiornamento-revisione: ARTPAST/ Ferraro M. (2006), Referente scientifico: NR (recupero pregresso); ";"2000";"2006";44.077598;10.104292
http://www.sigecweb.beniculturali.it/images/fullsize/ICCD50007125/ICCD2729917_sbaaas_pi_293020.jpg;"rilievo, opera isolata";"";"ritratto di bambino";"OA_3.00";"09 00525780";"Italia, Toscana, MS, CarraraVia P. Tacca, 36";"scuola, I.P.I.A.M. ""P. Tacca"", Via P. Tacca, 36, Gipsoteca dell'Istituto Tacca, gipsoteca";"sec. XIX metà; 1840  - 1860 [analisi stilistica]";"bottega italiana(analisi stilistica)";"";"gesso";"alt. 41, largh. 31, ";"proprietà Stato, Ministero della Pubblica Istruzione -  I.P.I.A.M. ""P. Tacca""";"formella modanata centinata recante ritratto di fanciullo con testa di profilo e busto di tre quartiNR (recupero pregresso)";"";"";"";"";"";"";"";"";"";"rilievo";"";"";"Toscana";"MS";"Carrara";"";"";"";"Via P. Tacca, 36";"";"";"";"";"";"S39";"S39";"Compilatore scheda: Passeggia L.; Funzionario responsabile: Russo S.; Aggiornamento-revisione: ARTPAST/ Ferraro M. (2006), Referente scientifico: NR (recupero pregresso); ";"2000";"2006";44.077598;10.104292
http://www.sigecweb.beniculturali.it/images/fullsize/ICCD50007125/ICCD2729988_sbaaas_pi_293059.jpg;"cariatide, opera isolata";"";"";"OA_3.00";"09 00525812";"Italia, Toscana, MS, CarraraVia P. Tacca, 36";"scuola, I.P.I.A.M. ""P. Tacca"", Via P. Tacca, 36, Gipsoteca dell'Istituto Tacca, gipsoteca";"sec. XIX prima metà; 1800  - 1849 [analisi stilistica]";"ambito italiano(analisi stilistica)";"";"gesso";"alt. 93, largh. 28, ";"proprietà Stato, Ministero della Pubblica Istruzione -  I.P.I.A.M. ""P. Tacca""";"figura femminile stante, vestita con lungo chitone, capelli parziamente raccolti e terminanti ai lati del collo in due ciocche, mani raccolte sul ventre per sorreggere lembi della vesteNR (recupero pregresso)";"";"Sono menzionate delle cariatidi, senza tuttavia l'aggiunta di più precise indicazioni, negli elenchi di laboratorio redatti nel 1832, a seguito della morte dell'allora titolare Roberto";"";"";"";"";"";"";"Passeggia L.(	1997)";"cariatide";"";"";"Toscana";"MS";"Carrara";"";"";"";"Via P. Tacca, 36";"";"";"";"";"";"S39";"S39";"Compilatore scheda: Passeggia L.; Funzionario responsabile: Russo S.; Aggiornamento-revisione: ARTPAST/ Ferraro M. (2006), Referente scientifico: NR (recupero pregresso); ";"2000";"2006";44.077598;10.104292
http://www.sigecweb.beniculturali.it/images/fullsize/ICCD50007125/ICCD2729923_sbaaas_pi_293023.jpg;"rilievo, frammento";"";"";"OA_3.00";"09 00525783";"Italia, Toscana, MS, CarraraVia P. Tacca, 36";"scuola, I.P.I.A.M. ""P. Tacca"", Via P. Tacca, 36, Gipsoteca dell'Istituto Tacca, gipsoteca";"sec. XIX metà; 1840  - 1860 [analisi stilistica]";"bottega italiana(analisi stilistica)";"";"gesso";"alt. 54, largh. 56, ";"proprietà Stato, Ministero della Pubblica Istruzione -  I.P.I.A.M. ""P. Tacca""";"fregio con fondo liscio e girale a rilievo fitomorfaNR (recupero pregresso)";"";"";"";"";"";"";"";"";"";"rilievo";"";"";"Toscana";"MS";"Carrara";"";"";"";"Via P. Tacca, 36";"";"";"";"";"";"S39";"S39";"Compilatore scheda: Passeggia L.; Funzionario responsabile: Russo S.; Aggiornamento-revisione: ARTPAST/ Ferraro M. (2006), Referente scientifico: NR (recupero pregresso); ";"2000";"2006";44.077598;10.104292
http://www.sigecweb.beniculturali.it/images/fullsize/ICCD50007125/ICCD2729992_sbaaas_pi_293061.jpg;"statua, opera isolata";"";"angelo";"OA_3.00";"09 00525814";"Italia, Toscana, MS, CarraraVia P. Tacca, 36";"scuola, I.P.I.A.M. ""P. Tacca"", Via P. Tacca, 36, Gipsoteca dell'Istituto Tacca, gipsoteca";"sec. XIX seconda metà; 1850  - 1899 [analisi stilistica]";"ambito italiano(analisi stilistica)";"";"gesso";"alt. 67, largh. 26.5, ";"proprietà Stato, Ministero della Pubblica Istruzione -  I.P.I.A.M. ""P. Tacca""";"angelo stante, in atto di incedere, recante tra le mani calice, veste stretta in vita da nastroNR (recupero pregresso)";"";"Assenti indicazioni che specifichino la presenza di questo modello in un particolare periodo all'interno del Laboratorio";"";"";"";"";"";"";"Passeggia L.(	1997)";"statua";"";"";"Toscana";"MS";"Carrara";"";"";"";"Via P. Tacca, 36";"";"";"";"";"";"S39";"S39";"Compilatore scheda: Passeggia L.; Funzionario responsabile: Russo S.; Aggiornamento-revisione: ARTPAST/ Ferraro M. (2006), Referente scientifico: NR (recupero pregresso); ";"2000";"2006";44.077598;10.104292
http://www.sigecweb.beniculturali.it/images/fullsize/ICCD50007125/ICCD2729994_sbaaas_pi_293062.jpg;"statua, opera isolata";"";"angelo";"OA_3.00";"09 00525815";"Italia, Toscana, MS, CarraraVia P. Tacca, 36";"scuola, I.P.I.A.M. ""P. Tacca"", Via P. Tacca, 36, Gipsoteca dell'Istituto Tacca, gipsoteca";"sec. XIX seconda metà; 1850  - 1899 [analisi stilistica]";"ambito italiano(analisi stilistica)";"";"gesso";"alt. 67, largh. 34, ";"proprietà Stato, Ministero della Pubblica Istruzione -  I.P.I.A.M. ""P. Tacca""";"angelo stante, con fascia appoggiata sui lombi, appoggiato a tronco, in atto di incedere, sorregge tra le mani arpa ebraicaNR (recupero pregresso)";"";"";"";"";"";"";"";"";"Passeggia L.(	1997)";"statua";"";"";"Toscana";"MS";"Carrara";"";"";"";"Via P. Tacca, 36";"";"";"";"";"";"S39";"S39";"Compilatore scheda: Passeggia L.; Funzionario responsabile: Russo S.; Aggiornamento-revisione: ARTPAST/ Ferraro M. (2006), Referente scientifico: NR (recupero pregresso); ";"2000";"2006";44.077598;10.104292
http://www.sigecweb.beniculturali.it/images/fullsize/ICCD50007125/ICCD2729999_sbaaas_pi_293065.jpg;"modello, elemento d'insieme";"";"bambina";"OA_3.00";"09 00525817";"Italia, Toscana, MS, CarraraVia P. Tacca, 36";"scuola, I.P.I.A.M. ""P. Tacca"", Via P. Tacca, 36, Gipsoteca dell'Istituto Tacca, gipsoteca";"sec. XIX ; 1860  - 1860 [documentazione]";"";"Lazzerini Giuseppe il Giovane (1831/ 1895), ";"gesso";"alt. 56, largh. 24, ";"proprietà Stato, Ministero della Pubblica Istruzione -  I.P.I.A.M. ""P. Tacca""";"bambina stante,scalza, in atto di incedere, sorregge con la mano destra il lembo della veste superiore e con l'altra quello inferioreNR (recupero pregresso)";"";"L'opera appartiene al ciclo intitolato ""Le quattro stagioni"" e realizzato da Giuseppe Lazzerini nel 1860 per il Marchese di San Eduardo";"";"";"";"";"";"";"Passeggia L.(	1997)";"modello";"";"";"Toscana";"MS";"Carrara";"";"";"";"Via P. Tacca, 36";"";"";"";"";"";"S39";"S39";"Compilatore scheda: Passeggia L.; Funzionario responsabile: Russo S.; Aggiornamento-revisione: ARTPAST/ Ferraro M. (2006), Referente scientifico: NR (recupero pregresso); ";"2000";"2006";44.077598;10.104292
http://www.sigecweb.beniculturali.it/images/fullsize/ICCD50007125/ICCD2730075_sbaaas_pi_293112.jpg;"modello, elemento d'insieme";"";"testa d'uomo";"OA_3.00";"09 00525846";"Italia, Toscana, MS, CarraraVia P. Tacca, 36";"scuola, I.P.I.A.M. ""P. Tacca"", Via P. Tacca, 36, Gipsoteca dell'Istituto Tacca, gipsoteca";"sec. XX ; 1910  - 1910 [documentazione]";"";"Lazzerini Alessandro (1860-1869/ 1942), ";"gesso";"alt. 54, largh. 37, ";"proprietà Stato, Ministero della Pubblica Istruzione -  I.P.I.A.M. ""P. Tacca""";"testa maschile con parrucca a boccoli settecentescaNR (recupero pregresso)";"";"Erroneamente indicato come busto nell'Inventario della scuola del Marmo, si tratta in reale della sola testa del monumento realizzato da Alessandro Lazzerini per la città di Jesi e dedicato al musicista Giovan Battista Pergolesi";"";"";"";"";"";"";"Passeggia L.(	1997)";"modello";"";"";"Toscana";"MS";"Carrara";"";"";"";"Via P. Tacca, 36";"";"";"";"";"";"S39";"S39";"Compilatore scheda: Passeggia L.; Funzionario responsabile: Russo S.; Aggiornamento-revisione: ARTPAST/ Ferraro M. (2006), Referente scientifico: NR (recupero pregresso); ";"2000";"2006";44.077598;10.104292
http://www.sigecweb.beniculturali.it/images/fullsize/ICCD50007125/ICCD2729795_sbaaas_pi_292959.jpg;"decorazione plastico-architettonica, frammento";"";"";"OA_3.00";"09 00525719";"Italia, Toscana, MS, CarraraVia P. Tacca, 36";"scuola, I.P.I.A.M. ""P. Tacca"", Via P. Tacca, 36, Gipsoteca dell'Istituto Tacca, gipsoteca";"sec. XX metà; 1940  - 1960 [analisi stilistica]";"bottega italiana(analisi stilistica)";"";"gesso";"alt. 40, largh. 151, ";"proprietà Stato, Ministero della Pubblica Istruzione -  I.P.I.A.M. ""P. Tacca""";"fregio decorativo raffigurante elementi fitomorfi, cornucopie, palmette, uccelli e bucraniNR (recupero pregresso)";"";"";"";"";"";"";"";"";"";"decorazione plastico-architettonica";"";"";"Toscana";"MS";"Carrara";"";"";"";"Via P. Tacca, 36";"";"";"";"";"";"S39";"S39";"Compilatore scheda: Passeggia L.; Funzionario responsabile: Russo S.; Aggiornamento-revisione: ARTPAST/ Ferraro M. (2006), Referente scientifico: NR (recupero pregresso); ";"2000";"2006";44.077598;10.104292
http://www.sigecweb.beniculturali.it/images/fullsize/ICCD50007125/ICCD2730171_sbaaas_pi_294947.jpg;"rilievo, opera isolata";"";"motivo decorativo fitomorfo";"OA_3.00";"09 00527100";"Italia, Toscana, MS, CarraraNR (recupero pregresso)";"scuola, I.P.I.A.M. ""P. Tacca"", NR (recupero pregresso), Gipsoteca dell'Istituto Tacca, gipsoteca";"sec. XX metà; 1940  - 1960 [analisi stilistica]";"bottega italiana(analisi stilistica)";"";"gesso";"alt. 53, largh. 29, ";"proprietà Stato, Ministero della Pubblica Istruzione -  I.P.I.A.M. ""P. Tacca""";"formella rettangolare recante tralcio di viteNR (recupero pregresso)";"";"";"";"";"";"";"";"";"";"rilievo";"";"";"Toscana";"MS";"Carrara";"";"";"";"NR (recupero pregresso)";"";"";"";"";"";"S39";"S39";"Compilatore scheda: Passeggia L.; Funzionario responsabile: Russo S.; Aggiornamento-revisione: ARTPAST/ Ferraro M. (2006), Referente scientifico: NR (recupero pregresso); ";"2001";"2006";44.082117;10.094062
http://www.sigecweb.beniculturali.it/images/fullsize/ICCD50007125/ICCD2730177_sbaaas_pi_294950.jpg;"statua, opera isolata";"";"FIGURA FEMMINILE";"OA_3.00";"09 00527103";"Italia, Toscana, MS, CarraraNR (recupero pregresso)";"scuola, I.P.I.A.M. ""P. Tacca"", NR (recupero pregresso), Gipsoteca dell'Istituto Tacca, gipsoteca";"sec. XX metà; 1940  - 1960 [analisi stilistica]";"bottega italiana(analisi stilistica)";"";"gesso";"alt. 54, largh. 18, ";"proprietà Stato, Ministero della Pubblica Istruzione -  I.P.I.A.M. ""P. Tacca""";"figura femminile astratta sedutaNR (recupero pregresso)";"";"";"";"";"";"";"";"";"";"statua";"";"";"Toscana";"MS";"Carrara";"";"";"";"NR (recupero pregresso)";"";"";"";"";"";"S39";"S39";"Compilatore scheda: Passeggia L.; Funzionario responsabile: Russo S.; Aggiornamento-revisione: ARTPAST/ Ferraro M. (2006), Referente scientifico: NR (recupero pregresso); ";"2001";"2006";44.082117;10.094062
http://www.sigecweb.beniculturali.it/images/fullsize/ICCD50007125/ICCD2730179_sbaaas_pi_294951.jpg;"mensola architettonica, elemento d'insieme";"";"";"OA_3.00";"09 00527104";"Italia, Toscana, MS, CarraraNR (recupero pregresso)";"scuola, I.P.I.A.M. ""P. Tacca"", NR (recupero pregresso), Gipsoteca dell'Istituto Tacca, gipsoteca";"secc. XIX/ XX fine/inizio; 1890  - 1910 [analisi stilistica]";"bottega italiana(analisi stilistica)";"";"gesso";"alt. 66, largh. 32, ";"proprietà Stato, Ministero della Pubblica Istruzione -  I.P.I.A.M. ""P. Tacca""";"mensola architettonica modanata costituita da palmetta angolare con peduccio leonino e volute fitomorfeNR (recupero pregresso)";"";"";"";"";"";"";"";"";"";"mensola architettonica";"";"";"Toscana";"MS";"Carrara";"";"";"";"NR (recupero pregresso)";"";"";"";"";"";"S39";"S39";"Compilatore scheda: Passeggia L.; Funzionario responsabile: Russo S.; Aggiornamento-revisione: ARTPAST/ Ferraro M. (2006), Referente scientifico: NR (recupero pregresso); ";"2001";"2006";44.082117;10.094062
http://www.sigecweb.beniculturali.it/images/fullsize/ICCD50007125/ICCD2730181_sbaaas_pi_294952.jpg;"statua, opera isolata";"";"figura femminile";"OA_3.00";"09 00527105";"Italia, Toscana, MS, CarraraNR (recupero pregresso)";"scuola, I.P.I.A.M. ""P. Tacca"", NR (recupero pregresso), Gipsoteca dell'Istituto Tacca, gipsoteca";"sec. XX metà; 1940  - 1960 [analisi stilistica]";"bottega italiana(analisi stilistica)";"";"gesso";"alt. 53, largh. 20, ";"proprietà Stato, Ministero della Pubblica Istruzione -  I.P.I.A.M. ""P. Tacca""";"figura femminile astratta stante, in atto di lanciare una pallaNR (recupero pregresso)";"";"";"";"";"";"";"";"";"";"statua";"";"";"Toscana";"MS";"Carrara";"";"";"";"NR (recupero pregresso)";"";"";"";"";"";"S39";"S39";"Compilatore scheda: Passeggia L.; Funzionario responsabile: Russo S.; Aggiornamento-revisione: ARTPAST/ Ferraro M. (2006), Referente scientifico: NR (recupero pregresso); ";"2001";"2006";44.082117;10.094062
http://www.sigecweb.beniculturali.it/images/fullsize/ICCD50007125/ICCD2730185_sbaaas_pi_294954.jpg;"busto, opera isolata";"";"busto femminile";"OA_3.00";"09 00527107";"Italia, Toscana, MS, CarraraNR (recupero pregresso)";"scuola, I.P.I.A.M. ""P. Tacca"", NR (recupero pregresso), Gipsoteca dell'Istituto Tacca, gipsoteca";"secc. XIX/ XX fine/inizio; 1890  - 1910 [analisi stilistica]";"bottega italiana(analisi stilistica)";"";"gesso";"alt. 52, largh. 31, ";"proprietà Stato, Ministero della Pubblica Istruzione -  I.P.I.A.M. ""P. Tacca""";"busto di fanciulla con capelli sciolti e veste ricamataNR (recupero pregresso)";"";"";"";"";"";"";"";"";"";"busto";"";"";"Toscana";"MS";"Carrara";"";"";"";"NR (recupero pregresso)";"";"";"";"";"";"S39";"S39";"Compilatore scheda: Passeggia L.; Funzionario responsabile: Russo S.; Aggiornamento-revisione: ARTPAST/ Ferraro M. (2006), Referente scientifico: NR (recupero pregresso); ";"2001";"2006";44.082117;10.094062
http://www.sigecweb.beniculturali.it/images/fullsize/ICCD50007125/ICCD2730187_sbaaas_pi_294955.jpg;"busto, opera isolata";"";"busto maschile";"OA_3.00";"09 00527108";"Italia, Toscana, MS, CarraraNR (recupero pregresso)";"scuola, I.P.I.A.M. ""P. Tacca"", NR (recupero pregresso), Gipsoteca dell'Istituto Tacca, gipsoteca";"sec. XIX inizio; 1800  - 1810 [analisi stilistica]";"bottega italiana(analisi stilistica)";"";"gesso";"alt. 47, largh. 32, ";"proprietà Stato, Ministero della Pubblica Istruzione -  I.P.I.A.M. ""P. Tacca""";"busto raffigurante testa maschileNR (recupero pregresso)";"";"";"";"";"";"";"";"";"";"busto";"";"";"Toscana";"MS";"Carrara";"";"";"";"NR (recupero pregresso)";"";"";"";"";"";"S39";"S39";"Compilatore scheda: Passeggia L.; Funzionario responsabile: Russo S.; Aggiornamento-revisione: ARTPAST/ Ferraro M. (2006), Referente scientifico: NR (recupero pregresso); ";"2001";"2006";44.082117;10.094062
http://www.sigecweb.beniculturali.it/images/fullsize/ICCD50007125/ICCD2730279_sbaaas_pi_295002.jpg;"capitello, elemento d'insieme";"";"";"OA_3.00";"09 00527154";"Italia, Toscana, MS, CarraraNR (recupero pregresso)";"scuola, I.P.I.A.M. ""P. Tacca"", NR (recupero pregresso), Gipsoteca dell'Istituto Tacca, gipsoteca";"sec. XX inizio; 1900  - 1910 [analisi stilistica]";"bottega italiana(analisi stilistica)";"";"gesso";"alt. 50, largh. 42, ";"proprietà Stato, Ministero della Pubblica Istruzione -  I.P.I.A.M. ""P. Tacca""";"capitello esagonale, mistilineo e modanato con decorazione centrale fitomorfaNR (recupero pregresso)";"";"";"";"";"";"";"";"";"";"capitello";"";"";"Toscana";"MS";"Carrara";"";"";"";"NR (recupero pregresso)";"";"";"";"";"";"S39";"S39";"Compilatore scheda: Passeggia L.; Funzionario responsabile: Russo S.; Aggiornamento-revisione: ARTPAST/ Ferraro M. (2006), Referente scientifico: NR (recupero pregresso); ";"2001";"2006";44.082117;10.094062
http://www.sigecweb.beniculturali.it/images/fullsize/ICCD50007125/ICCD2730285_sbaaas_pi_295005.jpg;"rilievo, opera isolata";"";"cigno";"OA_3.00";"09 00527157";"Italia, Toscana, MS, CarraraNR (recupero pregresso)";"scuola, I.P.I.A.M. ""P. Tacca"", NR (recupero pregresso), Gipsoteca dell'Istituto Tacca, gipsoteca";"sec. XX metà; 1940  - 1960 [analisi stilistica]";"bottega italiana(analisi stilistica)";"";"gesso";"alt. 23, largh. 48, ";"proprietà Stato, Ministero della Pubblica Istruzione -  I.P.I.A.M. ""P. Tacca""";"rilievo raffigurante cigno con ampio piumaggio di profiloNR (recupero pregresso)";"";"";"";"";"";"";"";"";"";"rilievo";"";"";"Toscana";"MS";"Carrara";"";"";"";"NR (recupero pregresso)";"";"";"";"";"";"S39";"S39";"Compilatore scheda: Passeggia L.; Funzionario responsabile: Russo S.; Aggiornamento-revisione: ARTPAST/ Ferraro M. (2006), Referente scientifico: NR (recupero pregresso); ";"2001";"2006";44.082117;10.094062
http://www.sigecweb.beniculturali.it/images/fullsize/ICCD50007125/ICCD2730287_sbaaas_pi_295006.jpg;"cornice architettonica, elemento d'insieme";"";"";"OA_3.00";"09 00527158";"Italia, Toscana, MS, CarraraNR (recupero pregresso)";"scuola, I.P.I.A.M. ""P. Tacca"", NR (recupero pregresso), Gipsoteca dell'Istituto Tacca, giposteca";"secc. XIX/ XX fine/inizio; 1890  - 1910 [analisi stilistica]";"bottega italiana(analisi stilistica)";"";"gesso";"alt. 19, largh. 105, ";"proprietà Stato, Ministero della Pubblica Istruzione -  I.P.I.A.M. ""P. Tacca""";"fregio modanato recante al centro festone fitomorfoNR (recupero pregresso)";"";"";"";"";"";"";"";"";"";"cornice architettonica";"";"";"Toscana";"MS";"Carrara";"";"";"";"NR (recupero pregresso)";"";"";"";"";"";"S39";"S39";"Compilatore scheda: Passeggia L.; Funzionario responsabile: Russo S.; Aggiornamento-revisione: ARTPAST/ Ferraro M. (2006), Referente scientifico: NR (recupero pregresso); ";"2001";"2006";44.082117;10.094062
http://www.sigecweb.beniculturali.it/images/fullsize/ICCD50007125/ICCD2730293_sbaaas_pi_295009.jpg;"busto, opera isolata";"";"busto femminile";"OA_3.00";"09 00527161";"Italia, Toscana, MS, CarraraNR (recupero pregresso)";"scuola, I.P.I.A.M. ""P. Tacca"", NR (recupero pregresso), Gipsoteca dell'Istituto Tacca, gipsoteca";"sec. XX metà; 1940  - 1960 [analisi stilistica]";"bottega italiana(analisi stilistica)";"";"gesso";"alt. 54, largh. 24, ";"proprietà Stato, Ministero della Pubblica Istruzione -  I.P.I.A.M. ""P. Tacca""";"busto femminile dal collo lungo lievemente reclinato a sinistraNR (recupero pregresso)";"";"";"";"";"";"";"";"";"";"busto";"";"";"Toscana";"MS";"Carrara";"";"";"";"NR (recupero pregresso)";"";"";"";"";"";"S39";"S39";"Compilatore scheda: Passeggia L.; Funzionario responsabile: Russo S.; Aggiornamento-revisione: ARTPAST/ Ferraro M. (2006), Referente scientifico: NR (recupero pregresso); ";"2001";"2006";44.082117;10.094062
http://www.sigecweb.beniculturali.it/images/fullsize/ICCD50007125/ICCD2730295_sbaaas_pi_295010.jpg;"cornice, elemento d'insieme";"";"";"OA_3.00";"09 00527162";"Italia, Toscana, MS, CarraraNR (recupero pregresso)";"scuola, I.P.I.A.M. ""P. Tacca"", NR (recupero pregresso), Gipsoteca dell'Istituto Tacca, gipsoteca";"sec. XX metà; 1940  - 1960 [analisi stilistica]";"bottega italiana(analisi stilistica)";"";"gesso";"alt. 57, largh. 44, ";"proprietà Stato, Ministero della Pubblica Istruzione -  I.P.I.A.M. ""P. Tacca""";"cornice cuoriforme con decorazione fitomirfa poggiante su base modanata e mistilineaNR (recupero pregresso)";"";"";"";"";"";"";"";"";"";"cornice";"";"";"Toscana";"MS";"Carrara";"";"";"";"NR (recupero pregresso)";"";"";"";"";"";"S39";"S39";"Compilatore scheda: Passeggia L.; Funzionario responsabile: Russo S.; Aggiornamento-revisione: ARTPAST/ Ferraro M. (2006), Referente scientifico: NR (recupero pregresso); ";"2001";"2006";44.082117;10.094062
;"rilievo, insieme";"Per la Resistenza";"La morte in guerra";"OA_3.00";"09 00552273 - 0";"Italia, Toscana, MS, CarraraNR (recupero pregresso)";"palazzo, Museo Civico del Marmo, NR (recupero pregresso), Museo Civico del Marmo, Diciannovesima sala, prima lato mare";"sec. XX ; 1974  - 1974 [documentazione]; sec. XX ; 1984  - 1984 [data]";"";"Binelli Cherubino (1920/ 2001), ";"stagno";"";"proprietà Ente pubblico territoriale, Comune di Carrara";"Rilievi in stagno: L'eccidio del paese di Vinca.NR (recupero pregresso)";"";"L'insieme è impostato da Binelli come una vera e propria scenografia teatrale, in cui diventa protagonista la forma delle figure plasmata dall'autore come se la stessa prenda vita dalla materia di cui è costituita.";"";"";"";"";"";"";"Di Genova G.(	1983); Dolce E.(	2000)p.226";"rilievo";"";"";"Toscana";"MS";"Carrara";"";"Fossola (frazione)";"";"NR (recupero pregresso)";"";"";"";"";"";"S39";"S39";"Compilatore scheda: Tusini I.; Funzionario responsabile: Fusani I.; Aggiornamento-revisione: ARTPAST/ Ferraro M. (2006), Referente scientifico: NR (recupero pregresso); ";"2002";"2006";44.082117;10.094062
http://www.sigecweb.beniculturali.it/images/fullsize/ICCD50007125/ICCD2729885_sbaaas_pi_293004.jpg;"formella, opera isolata";"";"motivo decorativo fitomorfo";"OA_3.00";"09 00525764";"Italia, Toscana, MS, CarraraVia P. Tacca, 36";"scuola, I.P.I.A.M. ""P. Tacca"", Via P. Tacca, 36, Gipsoteca dell'Istituto Tacca, gipsoteca";"sec. XX seconda metà; 1950  - 1999 [analisi stilistica]";"bottega italiana(analisi stilistica)";"";"gesso";"alt. 21, largh. 33, ";"proprietà Stato, Ministero della Pubblica Istruzione -  I.P.I.A.M. ""P. Tacca""";"formella raffigurante su fondo liscio volute vegetali intrecciateNR (recupero pregresso)";"";"";"";"";"";"";"";"";"";"formella";"";"";"Toscana";"MS";"Carrara";"";"";"";"Via P. Tacca, 36";"";"";"";"";"";"S39";"S39";"Compilatore scheda: Passeggia L.; Funzionario responsabile: Russo S.; Aggiornamento-revisione: ARTPAST/ Ferraro M. (2006), Referente scientifico: NR (recupero pregresso); ";"2000";"2006";44.077598;10.104292
http://www.sigecweb.beniculturali.it/images/fullsize/ICCD50007125/ICCD2729911_sbaaas_pi_293017.jpg;"statua, opera isolata";"";"Antinoo";"OA_3.00";"09 00525777";"Italia, Toscana, MS, CarraraVia P. Tacca, 36";"scuola, I.P.I.A.M. ""P. Tacca"", Via P. Tacca, 36, Gipsoteca dell'Istituto Tacca, gipsoteca";"sec. XX metà; 1940  - 1960 [analisi stilistica]";"bottega italiana(analisi stilistica)";"";"gesso";"alt. 149, largh. 58, ";"proprietà Stato, Ministero della Pubblica Istruzione -  I.P.I.A.M. ""P. Tacca""";"giovane nudo stante appoggiato a tronco con faretraNR (recupero pregresso)";"";"";"";"";"";"";"";"";"";"statua";"";"";"Toscana";"MS";"Carrara";"";"";"";"Via P. Tacca, 36";"";"";"";"";"";"S39";"S39";"Compilatore scheda: Passeggia L.; Funzionario responsabile: Russo S.; Aggiornamento-revisione: ARTPAST/ Ferraro M. (2006), Referente scientifico: NR (recupero pregresso); ";"2000";"2006";44.077598;10.104292
http://www.sigecweb.beniculturali.it/images/fullsize/ICCD50007125/ICCD2729983_sbaaas_pi_293056.jpg;"busto, opera isolata";"";"Elena";"OA_3.00";"09 00525810";"Italia, Toscana, MS, CarraraVia P. Tacca, 36";"scuola, I.P.I.A.M. ""P. Tacca"", Via P. Tacca, 36, Gipsoteca dell'Istituto Tacca, gipsoteca";"sec. XIX inizio; 1800  - 1810 [documentazione]";"bottega carrarese(bibliografia)";"";"gesso";"alt. 62, largh. 33, ";"proprietà Stato, Ministero della Pubblica Istruzione -  I.P.I.A.M. ""P. Tacca""";"Poggiante su peduccio sagomato, plinto sorreggente testa femminile raffigurante Elena; capelli raccolti parzialmente sul sommo del capoNR (recupero pregresso)";"Classe di appartenenza: documentaria;  Tecnica di scrittura: a incisione;  Tipo di caratteri: lettere capitali;  Posizione: plinto, parte anteriore frontale; ELENA";"L'opera, seppure genericamente indicata con il solo nome e senza specificarne l'autore, in questo caso Canova, viene menzionata più volte negli Invenrtari e negli elenchi di Laboratorio redatti tra il 1808 e il 1812";"";"";"";"";"";"";"Passeggia L.(	1997)";"busto";"";"";"Toscana";"MS";"Carrara";"";"";"";"Via P. Tacca, 36";"";"";"";"";"";"S39";"S39";"Compilatore scheda: Passeggia L.; Funzionario responsabile: Russo S.; Aggiornamento-revisione: ARTPAST/ Ferraro M. (2006), Referente scientifico: NR (recupero pregresso); ";"2000";"2006";44.077598;10.104292
http://www.sigecweb.beniculturali.it/images/fullsize/ICCD50007125/ICCD2729990_sbaaas_pi_293060.jpg;"cariatide, opera isolata";"";"";"OA_3.00";"09 00525813";"Italia, Toscana, MS, CarraraVia P. Tacca, 36";"scuola, I.P.I.A.M. ""P. Tacca"", Via P. Tacca, 36, Gipsoteca dell'Istituto Tacca, gipsoteca";"sec. XIX prima metà; 1800  - 1849 [analisi stilistica]";"ambito italiano(analisi stilistica)";"";"gesso";"alt. 95, largh. 32, ";"proprietà Stato, Ministero della Pubblica Istruzione -  I.P.I.A.M. ""P. Tacca""";"figura femminile stante con lungo chitone e mantello, capelli sciolti e recante sul capo anfora, braccio destro appoggiato alla spalla corrispondente, in atto di incedereNR (recupero pregresso)";"";"";"";"";"";"";"";"";"Passeggia L.(	1997)";"cariatide";"";"";"Toscana";"MS";"Carrara";"";"";"";"Via P. Tacca, 36";"";"";"";"";"";"S39";"S39";"Compilatore scheda: Passeggia L.; Funzionario responsabile: Russo S.; Aggiornamento-revisione: ARTPAST/ Ferraro M. (2006), Referente scientifico: NR (recupero pregresso); ";"2000";"2006";44.077598;10.104292
http://www.sigecweb.beniculturali.it/images/fullsize/ICCD50007125/ICCD2730065_sbaaas_pi_293107.jpg;"modello, opera isolata";"";"busto ritratto d'uomo";"OA_3.00";"09 00525841";"Italia, Toscana, MS, CarraraVia P. Tacca, 36";"scuola, I.P.I.A.M. ""P. Tacca"", Via P. Tacca, 36, Gipsoteca dell'Istituto Tacca, gipsoteca";"sec. XX ; 1906  - 1906 [documentazione]";"";"Lazzerini Alessandro (1860-1869/ 1942), ";"gesso";"alt. 69, largh. 54, ";"proprietà Stato, Ministero della Pubblica Istruzione -  I.P.I.A.M. ""P. Tacca""";"poggiante su plinto busto ritratto di Beethoven con camicia a jabodNR (recupero pregresso)";"Classe di appartenenza: documentaria;  tedesco;  Tecnica di scrittura: a incisione;  Tipo di caratteri: lettere capitali;  Posizione: base anteriore; BEETHOVEN";"";"";"";"";"";"";"";"Passeggia L.(	1997)";"modello";"";"";"Toscana";"MS";"Carrara";"";"";"";"Via P. Tacca, 36";"";"";"";"";"";"S39";"S39";"Compilatore scheda: Passeggia L.; Funzionario responsabile: Russo S.; Aggiornamento-revisione: ARTPAST/ Ferraro M. (2006), Referente scientifico: NR (recupero pregresso); ";"2000";"2006";44.077598;10.104292
http://www.sigecweb.beniculturali.it/images/fullsize/ICCD50007125/ICCD2730067_sbaaas_pi_293108.jpg;"modello, opera isolata";"";"busto ritratto d'uomo";"OA_3.00";"09 00525842";"Italia, Toscana, MS, CarraraVia P. Tacca, 36";"scuola, I.P.I.A.M. ""P. Tacca"", Via P. Tacca, 36, Gipsoteca dell'Istituto Tacca, gipsoteca";"sec. XX ; 1906  - 1906 [documentazione]";"";"Lazzerini Alessandro (1860-1869/ 1942), ";"gesso";"alt. 64, largh. 50, ";"proprietà Stato, Ministero della Pubblica Istruzione -  I.P.I.A.M. ""P. Tacca""";"poggiante su plinto busto ritratto di Rossini, cravatta con spillaNR (recupero pregresso)";"Classe di appartenenza: documentaria;  Tecnica di scrittura: a incisione;  Tipo di caratteri: lettere capitali;  Posizione: base anteriore; ROSSINI";"";"";"";"";"";"";"";"Passeggia L.(	1997)";"modello";"";"";"Toscana";"MS";"Carrara";"";"";"";"Via P. Tacca, 36";"";"";"";"";"";"S39";"S39";"Compilatore scheda: Passeggia L.; Funzionario responsabile: Russo S.; Aggiornamento-revisione: ARTPAST/ Ferraro M. (2006), Referente scientifico: NR (recupero pregresso); ";"2000";"2006";44.077598;10.104292
http://www.sigecweb.beniculturali.it/images/fullsize/ICCD50007125/ICCD2730071_sbaaas_pi_293110.jpg;"modello, opera isolata";"";"busto ritratto d'uomo";"OA_3.00";"09 00525844";"Italia, Toscana, MS, CarraraVia P. Tacca, 36";"scuola, I.P.I.A.M. ""P. Tacca"", Via P. Tacca, 36, Gipsoteca dell'Istituto Tacca, gispoteca";"sec. XX ; 1906  - 1906 [documentazione]";"";"Lazzerini Alessandro (1860-1869/ 1942), ";"gesso";"alt. 69, largh. 54, ";"proprietà Stato, Ministero della Pubblica Istruzione -  I.P.I.A.M. ""P. Tacca""";"su plinto busto raffigurante CatalaniNR (recupero pregresso)";"Classe di appartenenza: documentaria;  Tecnica di scrittura: a incisione;  Tipo di caratteri: lettere capitali;  Posizione: base anteriore; CATALANI";"";"";"";"";"";"";"";"Passeggia L.(	1997)";"modello";"";"";"Toscana";"MS";"Carrara";"";"";"";"Via P. Tacca, 36";"";"";"";"";"";"S39";"S39";"Compilatore scheda: Passeggia L.; Funzionario responsabile: Russo S.; Aggiornamento-revisione: ARTPAST/ Ferraro M. (2006), Referente scientifico: NR (recupero pregresso); ";"2000";"2006";44.077598;10.104292
http://www.sigecweb.beniculturali.it/images/fullsize/ICCD50007125/ICCD2730073_sbaaas_pi_293111.jpg;"modello, opera isolata";"";"busto ritratto d'uomo";"OA_3.00";"09 00525845";"Italia, Toscana, MS, CarraraVia P. Tacca, 36";"scuola, I.P.I.A.M. ""P. Tacca"", Via P. Tacca, 36, Gipsoteca dell'Istituto Tacca, gipsoteca";"sec. XX ; 1906  - 1906 [documentazione]";"";"Lazzerini Alessandro (1860-1869/ 1942), ";"gesso";"alt. 69, largh. 57, ";"proprietà Stato, Ministero della Pubblica Istruzione -  I.P.I.A.M. ""P. Tacca""";"su base rettangolare busto ritratto di Gounod, avanti negli anni, con barba e baffi fluentiNR (recupero pregresso)";"Classe di appartenenza: documentaria;  francese;  Tecnica di scrittura: a incisione;  Tipo di caratteri: lettere capitali;  Posizione: base, lato anteriore; GOUNOD";"";"";"";"";"";"";"";"Passeggia L.(	1997)";"modello";"";"";"Toscana";"MS";"Carrara";"";"";"";"Via P. Tacca, 36";"";"";"";"";"";"S39";"S39";"Compilatore scheda: Passeggia L.; Funzionario responsabile: Russo S.; Aggiornamento-revisione: ARTPAST/ Ferraro M. (2006), Referente scientifico: NR (recupero pregresso); ";"2000";"2006";44.077598;10.104292
http://www.sigecweb.beniculturali.it/images/fullsize/ICCD50007125/ICCD2730077_sbaaas_pi_293113.jpg;"gruppo scultoreo, opera isolata";"";"putti alati";"OA_3.00";"09 00525847";"Italia, Toscana, MS, CarraraVia P. Tacca, 36";"scuola, I.P.I.A.M. ""P. Tacca"", Via P. Tacca, 36, Gipsoteca dell'Istituto Tacca, gipsoteca";"sec. XIX inizio; 1800  - 1810 [documentazione]";"bottega romana(documentazione)";"";"gesso";"alt. 51, largh. 35, ";"proprietà Stato, Ministero della Pubblica Istruzione -  I.P.I.A.M. ""P. Tacca""";"coppia di putti alati, stanti, di cui il primo è in atto di trattenere quello più arretrato, sul punto di schiacciare con il piede sinistro un cuore. Sulla destra, in secondo piano per terra, corona di fioriNR (recupero pregresso)";"";"L'opera dal titolo ""gruppo lotta cuori"" viene più volte menzionata negli inventari del laboratorio, redatti tra il 1808 e il 1812, in occasione della divisione ereditaria seguita alla morte di Francesco Lazzarini avvenuta nel 1808";"";"";"";"";"";"";"Passeggia L.(	1997)";"gruppo scultoreo";"";"";"Toscana";"MS";"Carrara";"";"";"";"Via P. Tacca, 36";"";"";"";"";"";"S39";"S39";"Compilatore scheda: Passeggia L.; Funzionario responsabile: Russo S.; Aggiornamento-revisione: ARTPAST/ Ferraro M. (2006), Referente scientifico: NR (recupero pregresso); ";"2000";"2006";44.077598;10.104292
http://www.sigecweb.beniculturali.it/images/fullsize/ICCD50007125/ICCD2730165_sbaaas_pi_294944.jpg;"capitello, opera isolata";"";"";"OA_3.00";"09 00527097";"Italia, Toscana, MS, CarraraNR (recupero pregresso)";"scuola, I.P.I.A.M. ""P. Tacca"", NR (recupero pregresso), Gipsoteca dell'Istituto Tacca, gipsoteca";"sec. XX metà; 1940  - 1960 [analisi stilistica]";"bottega italiana(analisi stilistica)";"";"gesso";"alt. 28, largh. 21, ";"proprietà Stato, Ministero della Pubblica Istruzione -  I.P.I.A.M. ""P. Tacca""";"capitello trapezoidale recante decorazione stilizzata fitomorfa e toroNR (recupero pregresso)";"";"";"";"";"";"";"";"";"";"capitello";"";"";"Toscana";"MS";"Carrara";"";"";"";"NR (recupero pregresso)";"";"";"";"";"";"S39";"S39";"Compilatore scheda: Passeggia L.; Funzionario responsabile: Russo S.; Aggiornamento-revisione: ARTPAST/ Ferraro M. (2006), Referente scientifico: NR (recupero pregresso); ";"2001";"2006";44.082117;10.094062
http://www.sigecweb.beniculturali.it/images/fullsize/ICCD50007125/ICCD2730167_sbaaas_pi_294945.jpg;"statua, opera isolata";"";"civetta";"OA_3.00";"09 00527098";"Italia, Toscana, MS, CarraraNR (recupero pregresso)";"scuola, I.P.I.A.M. ""P. Tacca"", NR (recupero pregresso), Gipsoteca dell'Istituto Tacca, gipsoteca";"sec. XX metà; 1940  - 1960 [analisi stilistica]";"bottega italiana(analisi stilistica)";"";"gesso";"alt. 38, largh. 16, ";"proprietà Stato, Ministero della Pubblica Istruzione -  I.P.I.A.M. ""P. Tacca""";"civetta stanteNR (recupero pregresso)";"";"";"";"";"";"";"";"";"";"statua";"";"";"Toscana";"MS";"Carrara";"";"";"";"NR (recupero pregresso)";"";"";"";"";"";"S39";"S39";"Compilatore scheda: Passeggia L.; Funzionario responsabile: Russo S.; Aggiornamento-revisione: ARTPAST/ Ferraro M. (2006), Referente scientifico: NR (recupero pregresso); ";"2001";"2006";44.082117;10.094062
http://www.sigecweb.beniculturali.it/images/fullsize/ICCD50007125/ICCD2730173_sbaaas_pi_294948.jpg;"busto, opera isolata";"";"Madonna";"OA_3.00";"09 00527101";"Italia, Toscana, MS, CarraraNR (recupero pregresso)";"scuola, I.P.I.A.M. ""P. Tacca"", NR (recupero pregresso), Gipsoteca dell'Istituto Tacca, gipsoteca";"sec. XX metà; 1940  - 1960 [analisi stilistica]";"bottega italiana(analisi stilistica)";"";"gesso";"alt. 22, largh. 19, ";"proprietà Stato, Ministero della Pubblica Istruzione -  I.P.I.A.M. ""P. Tacca""";"busto raffigurante la Vergine a capo velato e lievemente reclinato alla propria sinistraNR (recupero pregresso)";"";"";"";"";"";"";"";"";"";"busto";"";"";"Toscana";"MS";"Carrara";"";"";"";"NR (recupero pregresso)";"";"";"";"";"";"S39";"S39";"Compilatore scheda: Passeggia L.; Funzionario responsabile: Russo S.; Aggiornamento-revisione: ARTPAST/ Ferraro M. (2006), Referente scientifico: NR (recupero pregresso); ";"2001";"2006";44.082117;10.094062
http://www.sigecweb.beniculturali.it/images/fullsize/ICCD50007125/ICCD2730175_sbaaas_pi_294949.jpg;"mensola architettonica, opera isolata";"";"";"OA_3.00";"09 00527102";"Italia, Toscana, MS, CarraraNR (recupero pregresso)";"scuola, I.P.I.A.M. ""P. Tacca"", NR (recupero pregresso), Gipsoteca dell'Istituto Tacca, gipsoteca";"sec. XX metà; 1940  - 1960 [analisi stilistica]";"bottega italiana(analisi stilistica)";"";"gesso";"alt. 40, largh. 32.5, ";"proprietà Stato, Ministero della Pubblica Istruzione -  I.P.I.A.M. ""P. Tacca""";"formella raffigurante batacchio con anello sorretto da mensola modanataNR (recupero pregresso)";"";"";"";"";"";"";"";"";"";"mensola architettonica";"";"";"Toscana";"MS";"Carrara";"";"";"";"NR (recupero pregresso)";"";"";"";"";"";"S39";"S39";"Compilatore scheda: Passeggia L.; Funzionario responsabile: Russo S.; Aggiornamento-revisione: ARTPAST/ Ferraro M. (2006), Referente scientifico: NR (recupero pregresso); ";"2001";"2006";44.082117;10.094062
http://www.sigecweb.beniculturali.it/images/fullsize/ICCD50007125/ICCD2730267_sbaaas_pi_294996.jpg;"formella, opera isolata";"";"motivi decorativi a grottesche";"OA_3.00";"09 00527148";"Italia, Toscana, MS, CarraraNR (recupero pregresso)";"scuola, I.P.I.A.M. ""P. Tacca"", NR (recupero pregresso), Gipsoteca dell'Istituto Tacca, gipsoteca";"secc. XIX/ XX fine/inizio; 1890  - 1910 [analisi stilistica]";"bottega italiana(analisi stilistica)";"";"gesso";"alt. 45.3, largh. 53, ";"proprietà Stato, Ministero della Pubblica Istruzione -  I.P.I.A.M. ""P. Tacca""";"formella rettangolare decorata, su fondo liscio, da motivo tripartito di grottesche caratterizzato a sinistra da bucranio, al centro da motivo antropomorfo e zoomorfo, a sinistra da elementi fotomorfiNR (recupero pregresso)";"";"";"";"";"";"";"";"";"";"formella";"";"";"Toscana";"MS";"Carrara";"";"";"";"NR (recupero pregresso)";"";"";"";"";"";"S39";"S39";"Compilatore scheda: Passeggia L.; Funzionario responsabile: Russo S.; Aggiornamento-revisione: ARTPAST/ Ferraro M. (2006), Referente scientifico: NR (recupero pregresso); ";"2001";"2006";44.082117;10.094062
http://www.sigecweb.beniculturali.it/images/fullsize/ICCD50007125/ICCD2730273_sbaaas_pi_294999.jpg;"statua, opera isolata";"";"giovane";"OA_3.00";"09 00527151";"Italia, Toscana, MS, CarraraNR (recupero pregresso)";"scuola, I.P.I.A.M. ""P. Tacca"", NR (recupero pregresso), Gipsoteca dell'Istituto Tacca, gipsoteca";"sec. XX metà; 1940  - 1960 [analisi stilistica]";"bottega italiana(analisi stilistica)";"";"gesso";"alt. 26, largh. 18, ";"proprietà Stato, Ministero della Pubblica Istruzione -  I.P.I.A.M. ""P. Tacca""";"testa raffigurante giovanettoNR (recupero pregresso)";"";"";"";"";"";"";"";"";"";"statua";"";"";"Toscana";"MS";"Carrara";"";"";"";"NR (recupero pregresso)";"";"";"";"";"";"S39";"S39";"Compilatore scheda: Passeggia L.; Funzionario responsabile: Russo S.; Aggiornamento-revisione: ARTPAST/ Ferraro M. (2006), Referente scientifico: NR (recupero pregresso); ";"2001";"2006";44.082117;10.094062
http://www.sigecweb.beniculturali.it/images/fullsize/ICCD50007125/ICCD2730275_sbaaas_pi_295000.jpg;"cornice, opera isolata";"";"";"OA_3.00";"09 00527152";"Italia, Toscana, MS, CarraraNR (recupero pregresso)";"scuola, I.P.I.A.M. ""P. Tacca"", NR (recupero pregresso), Gipsoteca dell'Istituto Tacca, gipsoteca";"sec. XX metà; 1940  - 1960 [analisi stilistica]";"bottega italiana(analisi stilistica)";"";"gesso";"alt. 44, largh. 46, ";"proprietà Stato, Ministero della Pubblica Istruzione -  I.P.I.A.M. ""P. Tacca""";"cornice ovale modanata e baccellata arricchita da elementi fitomorfiNR (recupero pregresso)";"";"";"";"";"";"";"";"";"";"cornice";"";"";"Toscana";"MS";"Carrara";"";"";"";"NR (recupero pregresso)";"";"";"";"";"";"S39";"S39";"Compilatore scheda: Passeggia L.; Funzionario responsabile: Russo S.; Aggiornamento-revisione: ARTPAST/ Ferraro M. (2006), Referente scientifico: NR (recupero pregresso); ";"2001";"2006";44.082117;10.094062
http://www.sigecweb.beniculturali.it/images/fullsize/ICCD50007125/ICCD2730277_sbaaas_pi_295001.jpg;"rilievo, opera isolata";"";"";"OA_3.00";"09 00527153";"Italia, Toscana, MS, CarraraNR (recupero pregresso)";"scuola, I.P.I.A.M. ""P. Tacca"", NR (recupero pregresso), Gipsoteca dell'Istituto Tacca, gipsoteca";"sec. XX metà; 1940  - 1960 [analisi stilistica]";"bottega italiana(analisi stilistica)";"";"gesso";"alt. 37, largh. 31, ";"proprietà Stato, Ministero della Pubblica Istruzione -  I.P.I.A.M. ""P. Tacca""";"mascherone antroporfo con capigliatura e barba baccellati e stilizzatiNR (recupero pregresso)";"";"";"";"";"";"";"";"";"";"rilievo";"";"";"Toscana";"MS";"Carrara";"";"";"";"NR (recupero pregresso)";"";"";"";"";"";"S39";"S39";"Compilatore scheda: Passeggia L.; Funzionario responsabile: Russo S.; Aggiornamento-revisione: ARTPAST/ Ferraro M. (2006), Referente scientifico: NR (recupero pregresso); ";"2001";"2006";44.082117;10.094062
http://www.sigecweb.beniculturali.it/images/fullsize/ICCD50007125/ICCD2730281_sbaaas_pi_295003.jpg;"formella, opera isolata";"";"";"OA_3.00";"09 00527155";"Italia, Toscana, MS, CarraraNR (recupero pregresso)";"scuola, I.P.I.A.M. ""P. Tacca"", NR (recupero pregresso), Gipsoteca dell'Istituto Tacca, gipsoteca";"sec. XX metà; 1940  - 1960 [analisi stilistica]";"bottega italiana(analisi stilistica)";"";"gesso";"alt. 24, largh. 19, ";"proprietà Stato, Ministero della Pubblica Istruzione -  I.P.I.A.M. ""P. Tacca""";"su formella rettangolare testa maschile dormienteNR (recupero pregresso)";"";"";"";"";"";"";"";"";"";"formella";"";"";"Toscana";"MS";"Carrara";"";"";"";"NR (recupero pregresso)";"";"";"";"";"";"S39";"S39";"Compilatore scheda: Passeggia L.; Funzionario responsabile: Russo S.; Aggiornamento-revisione: ARTPAST/ Ferraro M. (2006), Referente scientifico: NR (recupero pregresso); ";"2001";"2006";44.082117;10.094062
http://www.sigecweb.beniculturali.it/images/fullsize/ICCD50007125/ICCD2730283_sbaaas_pi_295004.jpg;"scultura, elemento d'insieme";"";"testa d'uomo";"OA_3.00";"09 00527156";"Italia, Toscana, MS, CarraraNR (recupero pregresso)";"scuola, I.P.I.A.M. ""P. Tacca"", NR (recupero pregresso), Gipsoteca dell'Istituto Tacca, gipsoteca";"sec. XX metà; 1940  - 1960 [analisi stilistica]";"bottega italiana(analisi stilistica)";"";"gesso";"alt. 25, largh. 17, ";"proprietà Stato, Ministero della Pubblica Istruzione -  I.P.I.A.M. ""P. Tacca""";"testa maschile calva dormienteNR (recupero pregresso)";"";"";"";"";"";"";"";"";"";"scultura";"";"";"Toscana";"MS";"Carrara";"";"";"";"NR (recupero pregresso)";"";"";"";"";"";"S39";"S39";"Compilatore scheda: Passeggia L.; Funzionario responsabile: Russo S.; Aggiornamento-revisione: ARTPAST/ Ferraro M. (2006), Referente scientifico: NR (recupero pregresso); ";"2001";"2006";44.082117;10.094062
